{"type":"FeatureCollection","features":[{"type":"Feature","properties":{"name":"Zimbabwe","sr":3,"n_en":"Zimbabwe","n_zh":"津巴布韦","n_ja":"ジンバブエ","n_ko":"짐바브웨","n_ru":"Зимбабве","n_es":"Zimbabue","n_fr":"Zimbabwe","n_de":"Simbabwe","n_ar":"زيمبابوي","n_pt":"Zimbábue","n_it":"Zimbabwe"},"geometry":{"type":"Point","coordinates":[29.925444,-18.91164]}},{"type":"Feature","properties":{"name":"Zambia","sr":3,"n_en":"Zambia","n_zh":"赞比亚","n_ja":"ザンビア","n_ko":"잠비아","n_ru":"Замбия","n_es":"Zambia","n_fr":"Zambie","n_de":"Sambia","n_ar":"زامبيا","n_pt":"Zâmbia","n_it":"Zambia"},"geometry":{"type":"Point","coordinates":[26.395298,-14.660804]}},{"type":"Feature","properties":{"name":"Yemen","sr":3,"n_en":"Yemen","n_zh":"也门","n_ja":"イエメン","n_ko":"예멘","n_ru":"Йемен","n_es":"Yemen","n_fr":"Yémen","n_de":"Jemen","n_ar":"اليمن","n_pt":"Iémen","n_it":"Yemen"},"geometry":{"type":"Point","coordinates":[45.874383,15.328226]}},{"type":"Feature","properties":{"name":"Vietnam","sr":2,"n_en":"Vietnam","n_zh":"越南","n_ja":"ベトナム","n_ko":"베트남","n_ru":"Вьетнам","n_es":"Vietnam","n_fr":"Viêt Nam","n_de":"Vietnam","n_ar":"فيتنام","n_pt":"Vietname","n_it":"Vietnam"},"geometry":{"type":"Point","coordinates":[105.387292,21.715416]}},{"type":"Feature","properties":{"name":"Venezuela","sr":3,"n_en":"Venezuela","n_zh":"委内瑞拉","n_ja":"ベネズエラ","n_ko":"베네수엘라","n_ru":"Венесуэла","n_es":"Venezuela","n_fr":"Venezuela","n_de":"Venezuela","n_ar":"فنزويلا","n_pt":"Venezuela","n_it":"Venezuela"},"geometry":{"type":"Point","coordinates":[-64.599381,7.182476]}},{"type":"Feature","properties":{"name":"Vatican","sr":6,"n_en":"Vatican City","n_zh":"梵蒂冈","n_ja":"バチカン","n_ko":"바티칸 시국","n_ru":"Ватикан","n_es":"Ciudad del Vaticano","n_fr":"Cité du Vatican","n_de":"Vatikanstadt","n_ar":"الفاتيكان","n_pt":"Vaticano","n_it":"Città del Vaticano"},"geometry":{"type":"Point","coordinates":[12.453418,41.903323]}},{"type":"Feature","properties":{"name":"Vanuatu","sr":4,"n_en":"Vanuatu","n_zh":"瓦努阿图","n_ja":"バヌアツ","n_ko":"바누아투","n_ru":"Вануату","n_es":"Vanuatu","n_fr":"Vanuatu","n_de":"Vanuatu","n_ar":"فانواتو","n_pt":"Vanuatu","n_it":"Vanuatu"},"geometry":{"type":"Point","coordinates":[166.908762,-15.37153]}},{"type":"Feature","properties":{"name":"Uzbekistan","sr":3,"n_en":"Uzbekistan","n_zh":"乌兹别克斯坦","n_ja":"ウズベキスタン","n_ko":"우즈베키스탄","n_ru":"Узбекистан","n_es":"Uzbekistán","n_fr":"Ouzbékistan","n_de":"Usbekistan","n_ar":"أوزبكستان","n_pt":"Uzbequistão","n_it":"Uzbekistan"},"geometry":{"type":"Point","coordinates":[64.005429,41.693603]}},{"type":"Feature","properties":{"name":"Uruguay","sr":4,"n_en":"Uruguay","n_zh":"乌拉圭","n_ja":"ウルグアイ","n_ko":"우루과이","n_ru":"Уругвай","n_es":"Uruguay","n_fr":"Uruguay","n_de":"Uruguay","n_ar":"الأوروغواي","n_pt":"Uruguai","n_it":"Uruguay"},"geometry":{"type":"Point","coordinates":[-55.966942,-32.961127]}},{"type":"Feature","properties":{"name":"Micronesia","sr":6,"n_en":"Federated States of Micronesia","n_zh":"密克罗尼西亚联邦","n_ja":"ミクロネシア連邦","n_ko":"미크로네시아 연방","n_ru":"Микронезия","n_es":"Estados Federados de Micronesia","n_fr":"États fédérés de Micronésie","n_de":"Föderierte Staaten von Mikronesien","n_ar":"ولايات ميكرونيسيا المتحدة","n_pt":"Micronésia","n_it":"Stati Federati di Micronesia"},"geometry":{"type":"Point","coordinates":[158.234019,6.887553]}},{"type":"Feature","properties":{"name":"Marshall Is.","sr":6,"n_en":"Marshall Islands","n_zh":"马绍尔群岛","n_ja":"マーシャル諸島","n_ko":"마셜 제도","n_ru":"Маршалловы Острова","n_es":"Islas Marshall","n_fr":"Îles Marshall","n_de":"Marshallinseln","n_ar":"جزر مارشال","n_pt":"Ilhas Marshall","n_it":"Isole Marshall"},"geometry":{"type":"Point","coordinates":[171.193609,7.082568]}},{"type":"Feature","properties":{"name":"N. Mariana Is.","sr":6,"n_en":"Northern Mariana Islands","n_zh":"北马里亚纳群岛","n_ja":"北マリアナ諸島","n_ko":"북마리아나 제도","n_ru":"Северные Марианские острова","n_es":"Islas Marianas del Norte","n_fr":"îles Mariannes du Nord","n_de":"Nördliche Marianen","n_ar":"جزر ماريانا الشمالية","n_pt":"Ilhas Marianas do Norte","n_it":"Isole Marianne Settentrionali"},"geometry":{"type":"Point","coordinates":[145.734397,15.188188]}},{"type":"Feature","properties":{"name":"U.S. Virgin Is.","sr":6,"n_en":"United States Virgin Islands","n_zh":"美属维尔京群岛","n_ja":"アメリカ領ヴァージン諸島","n_ko":"미국령 버진아일랜드","n_ru":"Американские Виргинские острова","n_es":"Islas Vírgenes de los Estados Unidos","n_fr":"îles Vierges des États-Unis","n_de":"Amerikanische Jungferninseln","n_ar":"جزر العذراء الأمريكية","n_pt":"Ilhas Virgens Americanas","n_it":"Isole Vergini americane"},"geometry":{"type":"Point","coordinates":[-64.779172,17.746706]}},{"type":"Feature","properties":{"name":"Guam","sr":6,"n_en":"Guam","n_zh":"关岛","n_ja":"グアム","n_ko":"괌","n_ru":"Гуам","n_es":"Guam","n_fr":"Guam","n_de":"Guam","n_ar":"غوام","n_pt":"Guam","n_it":"Guam"},"geometry":{"type":"Point","coordinates":[144.703614,13.354173]}},{"type":"Feature","properties":{"name":"American Samoa","sr":4,"n_en":"American Samoa","n_zh":"美属萨摩亚","n_ja":"アメリカ領サモア","n_ko":"아메리칸사모아","n_ru":"Американское Самоа","n_es":"Samoa Estadounidense","n_fr":"Samoa américaines","n_de":"Amerikanisch-Samoa","n_ar":"ساموا الأمريكية","n_pt":"Samoa Americana","n_it":"Samoa Americane"},"geometry":{"type":"Point","coordinates":[-170.747153,-14.32671]}},{"type":"Feature","properties":{"name":"Puerto Rico","sr":5,"n_en":"Puerto Rico","n_zh":"波多黎各","n_ja":"プエルトリコ","n_ko":"푸에르토리코","n_ru":"Пуэрто-Рико","n_es":"Puerto Rico","n_fr":"Porto Rico","n_de":"Puerto Rico","n_ar":"بورتوريكو","n_pt":"Porto Rico","n_it":"Porto Rico"},"geometry":{"type":"Point","coordinates":[-66.481065,18.234668]}},{"type":"Feature","properties":{"name":"United States of America","sr":2,"n_en":"United States of America","n_zh":"美国","n_ja":"アメリカ合衆国","n_ko":"미국","n_ru":"США","n_es":"Estados Unidos","n_fr":"États-Unis","n_de":"Vereinigte Staaten","n_ar":"الولايات المتحدة","n_pt":"Estados Unidos","n_it":"Stati Uniti d'America"},"geometry":{"type":"Point","coordinates":[-97.482602,39.538479]}},{"type":"Feature","properties":{"name":"S. Geo. and the Is.","sr":4,"n_en":"South Georgia and the South Sandwich Islands","n_zh":"南乔治亚和南桑威奇群岛","n_ja":"サウスジョージア・サウスサンドウィッチ諸島","n_ko":"사우스조지아 사우스샌드위치 제도","n_ru":"Южная Георгия и Южные Сандвичевы острова","n_es":"Islas Georgias del Sur y Sandwich del Sur","n_fr":"Géorgie du Sud-et-les Îles Sandwich du Sud","n_de":"Südgeorgien und die Südlichen Sandwichinseln","n_ar":"جورجيا الجنوبية وجزر ساندويتش الجنوبية","n_pt":"Ilhas Geórgia do Sul e Sandwich do Sul","n_it":"Georgia del Sud e isole Sandwich meridionali"},"geometry":{"type":"Point","coordinates":[-31.063179,-55.683402]}},{"type":"Feature","properties":{"name":"Br. Indian Ocean Ter.","sr":5,"n_en":"British Indian Ocean Territory","n_zh":"英属印度洋领地","n_ja":"イギリス領インド洋地域","n_ko":"영국령 인도양 지역","n_ru":"Британская территория в Индийском океане","n_es":"Territorio Británico del Océano Índico","n_fr":"Territoire britannique de l’océan Indien","n_de":"Britisches Territorium im Indischen Ozean","n_ar":"إقليم المحيط الهندي البريطاني","n_pt":"Território Britânico do Oceano Índico","n_it":"Territorio britannico dell'oceano Indiano"},"geometry":{"type":"Point","coordinates":[71.348349,-6.190826]}},{"type":"Feature","properties":{"name":"Saint Helena","sr":6,"n_en":"Saint Helena","n_zh":"圣赫勒拿","n_ja":"セントヘレナ","n_ko":"세인트헬레나","n_ru":"Остров Святой Елены","n_es":"Isla Santa Elena","n_fr":"Sainte-Hélène","n_de":"St. Helena","n_ar":"سانت هيلينا","n_pt":"Santa Helena","n_it":"Sant'Elena"},"geometry":{"type":"Point","coordinates":[-5.71262,-15.950487]}},{"type":"Feature","properties":{"name":"Pitcairn Is.","sr":4,"n_en":"Pitcairn Islands","n_zh":"皮特凯恩群岛","n_ja":"ピトケアン諸島","n_ko":"핏케언 제도","n_ru":"Острова Питкэрн","n_es":"Islas Pitcairn","n_fr":"Iles Pitcairn","n_de":"Pitcairninseln","n_ar":"جزر بيتكيرن","n_pt":"Ilhas Pitcairn","n_it":"Isole Pitcairn"},"geometry":{"type":"Point","coordinates":[-128.317536,-24.364576]}},{"type":"Feature","properties":{"name":"Anguilla","sr":6,"n_en":"Anguilla","n_zh":"安圭拉","n_ja":"アンギラ","n_ko":"앵귈라","n_ru":"Ангилья","n_es":"Anguila","n_fr":"Anguilla","n_de":"Anguilla","n_ar":"أنغويلا","n_pt":"Anguilla","n_it":"Anguilla"},"geometry":{"type":"Point","coordinates":[-63.026361,18.242979]}},{"type":"Feature","properties":{"name":"Falkland Is.","sr":5,"n_en":"Falkland Islands","n_zh":"福克兰群岛","n_ja":"フォークランド諸島","n_ko":"포클랜드 제도","n_ru":"Фолклендские острова","n_es":"Islas Malvinas","n_fr":"îles Malouines","n_de":"Falklandinseln","n_ar":"جزر فوكلاند","n_pt":"Ilhas Malvinas","n_it":"Isole Falkland"},"geometry":{"type":"Point","coordinates":[-58.738602,-51.608913]}},{"type":"Feature","properties":{"name":"Cayman Is.","sr":5,"n_en":"Cayman Islands","n_zh":"开曼群岛","n_ja":"ケイマン諸島","n_ko":"케이맨 제도","n_ru":"острова Кайман","n_es":"Islas Caimán","n_fr":"îles Caïmans","n_de":"Cayman Islands","n_ar":"جزر كايمان","n_pt":"Ilhas Caimão","n_it":"Isole Cayman"},"geometry":{"type":"Point","coordinates":[-81.24055,19.319862]}},{"type":"Feature","properties":{"name":"Bermuda","sr":6,"n_en":"Bermuda","n_zh":"百慕大","n_ja":"バミューダ諸島","n_ko":"버뮤다","n_ru":"Бермудские Острова","n_es":"Bermudas","n_fr":"Bermudes","n_de":"Bermuda","n_ar":"برمودا","n_pt":"Bermudas","n_it":"Bermuda"},"geometry":{"type":"Point","coordinates":[-64.763573,32.296592]}},{"type":"Feature","properties":{"name":"British Virgin Is.","sr":6,"n_en":"British Virgin Islands","n_zh":"英属维尔京群岛","n_ja":"イギリス領ヴァージン諸島","n_ko":"영국령 버진아일랜드","n_ru":"Британские Виргинские острова","n_es":"Islas Vírgenes Británicas","n_fr":"îles Vierges britanniques","n_de":"Britische Jungferninseln","n_ar":"جزر العذراء البريطانية","n_pt":"Ilhas Virgens Britânicas","n_it":"Isole Vergini britanniche"},"geometry":{"type":"Point","coordinates":[-64.63661,18.426606]}},{"type":"Feature","properties":{"name":"Turks and Caicos Is.","sr":6,"n_en":"Turks and Caicos Islands","n_zh":"特克斯和凯科斯群岛","n_ja":"タークス・カイコス諸島","n_ko":"터크스 케이커스 제도","n_ru":"Тёркс и Кайкос","n_es":"Islas Turcas y Caicos","n_fr":"îles Turques-et-Caïques","n_de":"Turks- und Caicosinseln","n_ar":"جزر توركس وكايكوس","n_pt":"Turks e Caicos","n_it":"Turks e Caicos"},"geometry":{"type":"Point","coordinates":[-71.752704,21.81663]}},{"type":"Feature","properties":{"name":"Montserrat","sr":6,"n_en":"Montserrat","n_zh":"蒙特塞拉特","n_ja":"モントセラト","n_ko":"몬트세랫","n_ru":"Монтсеррат","n_es":"Montserrat","n_fr":"Montserrat","n_de":"Montserrat","n_ar":"مونتسرات","n_pt":"Montserrat","n_it":"Montserrat"},"geometry":{"type":"Point","coordinates":[-62.188252,16.73717]}},{"type":"Feature","properties":{"name":"Jersey","sr":6,"n_en":"Jersey","n_zh":"泽西","n_ja":"ジャージー","n_ko":"저지섬","n_ru":"Джерси","n_es":"Jersey","n_fr":"Jersey","n_de":"Jersey","n_ar":"جيرزي","n_pt":"Jersey","n_it":"baliato di Jersey"},"geometry":{"type":"Point","coordinates":[-2.090146,49.220808]}},{"type":"Feature","properties":{"name":"Guernsey","sr":6,"n_en":"Guernsey","n_zh":"根西","n_ja":"ガーンジー","n_ko":"건지섬","n_ru":"Гернси","n_es":"Guernsey","n_fr":"Guernesey","n_de":"Guernsey","n_ar":"غيرنزي","n_pt":"Guernsey","n_it":"Guernsey"},"geometry":{"type":"Point","coordinates":[-2.561736,49.463533]}},{"type":"Feature","properties":{"name":"Isle of Man","sr":6,"n_en":"Isle of Man","n_zh":"马恩岛","n_ja":"マン島","n_ko":"맨섬","n_ru":"остров Мэн","n_es":"Isla de Man","n_fr":"île de Man","n_de":"Isle of Man","n_ar":"جزيرة مان","n_pt":"Ilha de Man","n_it":"Isola di Man"},"geometry":{"type":"Point","coordinates":[-4.530069,54.220833]}},{"type":"Feature","properties":{"name":"United Kingdom","sr":2,"n_en":"United Kingdom","n_zh":"英国","n_ja":"イギリス","n_ko":"영국","n_ru":"Великобритания","n_es":"Reino Unido","n_fr":"Royaume-Uni","n_de":"Vereinigtes Königreich","n_ar":"المملكة المتحدة","n_pt":"Reino Unido","n_it":"Regno Unito"},"geometry":{"type":"Point","coordinates":[-2.116346,54.402739]}},{"type":"Feature","properties":{"name":"United Arab Emirates","sr":4,"n_en":"United Arab Emirates","n_zh":"阿拉伯联合酋长国","n_ja":"アラブ首長国連邦","n_ko":"아랍에미리트","n_ru":"Объединённые Арабские Эмираты","n_es":"Emiratos Árabes Unidos","n_fr":"Émirats arabes unis","n_de":"Vereinigte Arabische Emirate","n_ar":"الإمارات العربية المتحدة","n_pt":"Emirados Árabes Unidos","n_it":"Emirati Arabi Uniti"},"geometry":{"type":"Point","coordinates":[54.547256,23.466285]}},{"type":"Feature","properties":{"name":"Ukraine","sr":3,"n_en":"Ukraine","n_zh":"乌克兰","n_ja":"ウクライナ","n_ko":"우크라이나","n_ru":"Украина","n_es":"Ucrania","n_fr":"Ukraine","n_de":"Ukraine","n_ar":"أوكرانيا","n_pt":"Ucrânia","n_it":"Ucraina"},"geometry":{"type":"Point","coordinates":[32.140865,49.724739]}},{"type":"Feature","properties":{"name":"Uganda","sr":3,"n_en":"Uganda","n_zh":"乌干达","n_ja":"ウガンダ","n_ko":"우간다","n_ru":"Уганда","n_es":"Uganda","n_fr":"Ouganda","n_de":"Uganda","n_ar":"أوغندا","n_pt":"Uganda","n_it":"Uganda"},"geometry":{"type":"Point","coordinates":[32.948555,1.972589]}},{"type":"Feature","properties":{"name":"Turkmenistan","sr":4,"n_en":"Turkmenistan","n_zh":"土库曼斯坦","n_ja":"トルクメニスタン","n_ko":"투르크메니스탄","n_ru":"Туркмения","n_es":"Turkmenistán","n_fr":"Turkménistan","n_de":"Turkmenistan","n_ar":"تركمانستان","n_pt":"Turquemenistão","n_it":"Turkmenistan"},"geometry":{"type":"Point","coordinates":[58.676647,39.855246]}},{"type":"Feature","properties":{"name":"Turkey","sr":2,"n_en":"Turkey","n_zh":"土耳其","n_ja":"トルコ","n_ko":"터키","n_ru":"Турция","n_es":"Turquía","n_fr":"Turquie","n_de":"Türkei","n_ar":"تركيا","n_pt":"Turquia","n_it":"Turchia"},"geometry":{"type":"Point","coordinates":[34.508268,39.345388]}},{"type":"Feature","properties":{"name":"Tunisia","sr":3,"n_en":"Tunisia","n_zh":"突尼斯","n_ja":"チュニジア","n_ko":"튀니지","n_ru":"Тунис","n_es":"Túnez","n_fr":"Tunisie","n_de":"Tunesien","n_ar":"تونس","n_pt":"Tunísia","n_it":"Tunisia"},"geometry":{"type":"Point","coordinates":[9.007881,33.687263]}},{"type":"Feature","properties":{"name":"Trinidad and Tobago","sr":5,"n_en":"Trinidad and Tobago","n_zh":"特立尼达和多巴哥","n_ja":"トリニダード・トバゴ","n_ko":"트리니다드 토바고","n_ru":"Тринидад и Тобаго","n_es":"Trinidad y Tobago","n_fr":"Trinité-et-Tobago","n_de":"Trinidad und Tobago","n_ar":"ترينيداد وتوباغو","n_pt":"Trinidad e Tobago","n_it":"Trinidad e Tobago"},"geometry":{"type":"Point","coordinates":[-60.9184,10.9989]}},{"type":"Feature","properties":{"name":"Tonga","sr":4,"n_en":"Tonga","n_zh":"汤加","n_ja":"トンガ","n_ko":"통가","n_ru":"Тонга","n_es":"Tonga","n_fr":"Tonga","n_de":"Tonga","n_ar":"تونغا","n_pt":"Tonga","n_it":"Tonga"},"geometry":{"type":"Point","coordinates":[-175.163014,-21.210026]}},{"type":"Feature","properties":{"name":"Togo","sr":6,"n_en":"Togo","n_zh":"多哥","n_ja":"トーゴ","n_ko":"토고","n_ru":"Того","n_es":"Togo","n_fr":"Togo","n_de":"Togo","n_ar":"توغو","n_pt":"Togo","n_it":"Togo"},"geometry":{"type":"Point","coordinates":[1.058113,8.80722]}},{"type":"Feature","properties":{"name":"Timor-Leste","sr":5,"n_en":"East Timor","n_zh":"东帝汶","n_ja":"東ティモール","n_ko":"동티모르","n_ru":"Восточный Тимор","n_es":"Timor Oriental","n_fr":"Timor oriental","n_de":"Osttimor","n_ar":"تيمور الشرقية","n_pt":"Timor-Leste","n_it":"Timor Est"},"geometry":{"type":"Point","coordinates":[125.854679,-8.803705]}},{"type":"Feature","properties":{"name":"Thailand","sr":3,"n_en":"Thailand","n_zh":"泰国","n_ja":"タイ王国","n_ko":"태국","n_ru":"Таиланд","n_es":"Tailandia","n_fr":"Thaïlande","n_de":"Thailand","n_ar":"تايلاند","n_pt":"Tailândia","n_it":"Thailandia"},"geometry":{"type":"Point","coordinates":[101.073198,15.45974]}},{"type":"Feature","properties":{"name":"Tanzania","sr":3,"n_en":"Tanzania","n_zh":"坦桑尼亚","n_ja":"タンザニア","n_ko":"탄자니아","n_ru":"Танзания","n_es":"Tanzania","n_fr":"Tanzanie","n_de":"Tansania","n_ar":"تنزانيا","n_pt":"Tanzânia","n_it":"Tanzania"},"geometry":{"type":"Point","coordinates":[34.959183,-6.051866]}},{"type":"Feature","properties":{"name":"Tajikistan","sr":4,"n_en":"Tajikistan","n_zh":"塔吉克斯坦","n_ja":"タジキスタン","n_ko":"타지키스탄","n_ru":"Таджикистан","n_es":"Tayikistán","n_fr":"Tadjikistan","n_de":"Tadschikistan","n_ar":"طاجيكستان","n_pt":"Tajiquistão","n_it":"Tagikistan"},"geometry":{"type":"Point","coordinates":[72.587276,38.199835]}},{"type":"Feature","properties":{"name":"Taiwan","sr":3,"n_en":"Taiwan","n_zh":"中华民国","n_ja":"中華民国","n_ko":"중화민국","n_ru":"Тайвань","n_es":"República de China","n_fr":"Taïwan","n_de":"Republik China","n_ar":"تايوان","n_pt":"Taiwan","n_it":"Taiwan"},"geometry":{"type":"Point","coordinates":[120.868204,23.652408]}},{"type":"Feature","properties":{"name":"Syria","sr":3,"n_en":"Syria","n_zh":"叙利亚","n_ja":"シリア","n_ko":"시리아","n_ru":"Сирия","n_es":"Siria","n_fr":"Syrie","n_de":"Syrien","n_ar":"سوريا","n_pt":"Síria","n_it":"Siria"},"geometry":{"type":"Point","coordinates":[38.277783,35.006636]}},{"type":"Feature","properties":{"name":"Switzerland","sr":4,"n_en":"Switzerland","n_zh":"瑞士","n_ja":"スイス","n_ko":"스위스","n_ru":"Швейцария","n_es":"Suiza","n_fr":"Suisse","n_de":"Schweiz","n_ar":"سويسرا","n_pt":"Suíça","n_it":"Svizzera"},"geometry":{"type":"Point","coordinates":[7.463965,46.719114]}},{"type":"Feature","properties":{"name":"Sweden","sr":3,"n_en":"Sweden","n_zh":"瑞典","n_ja":"スウェーデン","n_ko":"스웨덴","n_ru":"Швеция","n_es":"Suecia","n_fr":"Suède","n_de":"Schweden","n_ar":"السويد","n_pt":"Suécia","n_it":"Svezia"},"geometry":{"type":"Point","coordinates":[19.01705,65.85918]}},{"type":"Feature","properties":{"name":"eSwatini","sr":4,"n_en":"Eswatini","n_zh":"斯威士兰","n_ja":"エスワティニ","n_ko":"에스와티니","n_ru":"Эсватини","n_es":"Suazilandia","n_fr":"Eswatini","n_de":"Eswatini","n_ar":"إسواتيني","n_pt":"Essuatíni","n_it":"eSwatini"},"geometry":{"type":"Point","coordinates":[31.467264,-26.533676]}},{"type":"Feature","properties":{"name":"Suriname","sr":4,"n_en":"Suriname","n_zh":"苏里南","n_ja":"スリナム","n_ko":"수리남","n_ru":"Суринам","n_es":"Surinam","n_fr":"Suriname","n_de":"Suriname","n_ar":"سورينام","n_pt":"Suriname","n_it":"Suriname"},"geometry":{"type":"Point","coordinates":[-55.91094,4.143987]}},{"type":"Feature","properties":{"name":"S. Sudan","sr":3,"n_en":"South Sudan","n_zh":"南苏丹","n_ja":"南スーダン","n_ko":"남수단","n_ru":"Южный Судан","n_es":"Sudán del Sur","n_fr":"Soudan du Sud","n_de":"Südsudan","n_ar":"جنوب السودان","n_pt":"Sudão do Sul","n_it":"Sudan del Sud"},"geometry":{"type":"Point","coordinates":[30.390151,7.230477]}},{"type":"Feature","properties":{"name":"Sudan","sr":3,"n_en":"Sudan","n_zh":"苏丹","n_ja":"スーダン","n_ko":"수단","n_ru":"Судан","n_es":"Sudán","n_fr":"Soudan","n_de":"Sudan","n_ar":"السودان","n_pt":"Sudão","n_it":"Sudan"},"geometry":{"type":"Point","coordinates":[29.260657,16.330746]}},{"type":"Feature","properties":{"name":"Sri Lanka","sr":3,"n_en":"Sri Lanka","n_zh":"斯里兰卡","n_ja":"スリランカ","n_ko":"스리랑카","n_ru":"Шри-Ланка","n_es":"Sri Lanka","n_fr":"Sri Lanka","n_de":"Sri Lanka","n_ar":"سريلانكا","n_pt":"Sri Lanka","n_it":"Sri Lanka"},"geometry":{"type":"Point","coordinates":[80.704823,7.581097]}},{"type":"Feature","properties":{"name":"Spain","sr":2,"n_en":"Spain","n_zh":"西班牙","n_ja":"スペイン","n_ko":"스페인","n_ru":"Испания","n_es":"España","n_fr":"Espagne","n_de":"Spanien","n_ar":"إسبانيا","n_pt":"Espanha","n_it":"Spagna"},"geometry":{"type":"Point","coordinates":[-3.464718,40.090953]}},{"type":"Feature","properties":{"name":"South Korea","sr":2,"n_en":"South Korea","n_zh":"大韩民国","n_ja":"大韓民国","n_ko":"대한민국","n_ru":"Республика Корея","n_es":"Corea del Sur","n_fr":"Corée du Sud","n_de":"Südkorea","n_ar":"كوريا الجنوبية","n_pt":"Coreia do Sul","n_it":"Corea del Sud"},"geometry":{"type":"Point","coordinates":[128.129504,36.384924]}},{"type":"Feature","properties":{"name":"South Africa","sr":2,"n_en":"South Africa","n_zh":"南非","n_ja":"南アフリカ共和国","n_ko":"남아프리카 공화국","n_ru":"ЮАР","n_es":"Sudáfrica","n_fr":"Afrique du Sud","n_de":"Südafrika","n_ar":"جنوب أفريقيا","n_pt":"África do Sul","n_it":"Sudafrica"},"geometry":{"type":"Point","coordinates":[23.665734,-29.708776]}},{"type":"Feature","properties":{"name":"Somalia","sr":6,"n_en":"Somalia","n_zh":"索马里","n_ja":"ソマリア","n_ko":"소말리아","n_ru":"Сомали","n_es":"Somalia","n_fr":"Somalie","n_de":"Somalia","n_ar":"الصومال","n_pt":"Somália","n_it":"Somalia"},"geometry":{"type":"Point","coordinates":[45.19238,3.568925]}},{"type":"Feature","properties":{"name":"Somaliland","sr":5,"n_en":"Somaliland","n_zh":"索马里兰","n_ja":"ソマリランド","n_ko":"소말릴란드","n_ru":"Сомалиленд","n_es":"Somalilandia","n_fr":"Somaliland","n_de":"Somaliland","n_ar":"صوماليلاند","n_pt":"Somalilândia","n_it":"Somaliland"},"geometry":{"type":"Point","coordinates":[46.731595,9.443889]}},{"type":"Feature","properties":{"name":"Solomon Is.","sr":3,"n_en":"Solomon Islands","n_zh":"所罗门群岛","n_ja":"ソロモン諸島","n_ko":"솔로몬 제도","n_ru":"Соломоновы Острова","n_es":"Islas Salomón","n_fr":"Îles Salomon","n_de":"Salomonen","n_ar":"جزر سليمان","n_pt":"Ilhas Salomão","n_it":"Isole Salomone"},"geometry":{"type":"Point","coordinates":[159.170468,-8.029548]}},{"type":"Feature","properties":{"name":"Slovakia","sr":6,"n_en":"Slovakia","n_zh":"斯洛伐克","n_ja":"スロバキア","n_ko":"슬로바키아","n_ru":"Словакия","n_es":"Eslovaquia","n_fr":"Slovaquie","n_de":"Slowakei","n_ar":"سلوفاكيا","n_pt":"Eslováquia","n_it":"Slovacchia"},"geometry":{"type":"Point","coordinates":[19.049868,48.734044]}},{"type":"Feature","properties":{"name":"Slovenia","sr":6,"n_en":"Slovenia","n_zh":"斯洛文尼亚","n_ja":"スロベニア","n_ko":"슬로베니아","n_ru":"Словения","n_es":"Eslovenia","n_fr":"Slovénie","n_de":"Slowenien","n_ar":"سلوفينيا","n_pt":"Eslovénia","n_it":"Slovenia"},"geometry":{"type":"Point","coordinates":[14.915312,46.06076]}},{"type":"Feature","properties":{"name":"Singapore","sr":6,"n_en":"Singapore","n_zh":"新加坡","n_ja":"シンガポール","n_ko":"싱가포르","n_ru":"Сингапур","n_es":"Singapur","n_fr":"Singapour","n_de":"Singapur","n_ar":"سنغافورة","n_pt":"Singapura","n_it":"Singapore"},"geometry":{"type":"Point","coordinates":[103.816925,1.366587]}},{"type":"Feature","properties":{"name":"Sierra Leone","sr":4,"n_en":"Sierra Leone","n_zh":"塞拉利昂","n_ja":"シエラレオネ","n_ko":"시에라리온","n_ru":"Сьерра-Леоне","n_es":"Sierra Leona","n_fr":"Sierra Leone","n_de":"Sierra Leone","n_ar":"سيراليون","n_pt":"Serra Leoa","n_it":"Sierra Leone"},"geometry":{"type":"Point","coordinates":[-11.763677,8.617449]}},{"type":"Feature","properties":{"name":"Seychelles","sr":6,"n_en":"Seychelles","n_zh":"塞舌尔","n_ja":"セーシェル","n_ko":"세이셸","n_ru":"Сейшельские Острова","n_es":"Seychelles","n_fr":"Seychelles","n_de":"Seychellen","n_ar":"سيشل","n_pt":"Seychelles","n_it":"Seychelles"},"geometry":{"type":"Point","coordinates":[55.480175,-4.676659]}},{"type":"Feature","properties":{"name":"Serbia","sr":5,"n_en":"Serbia","n_zh":"塞尔维亚","n_ja":"セルビア","n_ko":"세르비아","n_ru":"Сербия","n_es":"Serbia","n_fr":"Serbie","n_de":"Serbien","n_ar":"صربيا","n_pt":"Sérvia","n_it":"Serbia"},"geometry":{"type":"Point","coordinates":[20.787989,44.189919]}},{"type":"Feature","properties":{"name":"Senegal","sr":3,"n_en":"Senegal","n_zh":"塞内加尔","n_ja":"セネガル","n_ko":"세네갈","n_ru":"Сенегал","n_es":"Senegal","n_fr":"Sénégal","n_de":"Senegal","n_ar":"السنغال","n_pt":"Senegal","n_it":"Senegal"},"geometry":{"type":"Point","coordinates":[-14.778586,15.138125]}},{"type":"Feature","properties":{"name":"Saudi Arabia","sr":2,"n_en":"Saudi Arabia","n_zh":"沙特阿拉伯","n_ja":"サウジアラビア","n_ko":"사우디아라비아","n_ru":"Саудовская Аравия","n_es":"Arabia Saudita","n_fr":"Arabie saoudite","n_de":"Saudi-Arabien","n_ar":"السعودية","n_pt":"Arábia Saudita","n_it":"Arabia Saudita"},"geometry":{"type":"Point","coordinates":[44.6996,23.806908]}},{"type":"Feature","properties":{"name":"São Tomé and Principe","sr":6,"n_en":"São Tomé and Príncipe","n_zh":"圣多美和普林西比","n_ja":"サントメ・プリンシペ","n_ko":"상투메 프린시페","n_ru":"Сан-Томе и Принсипи","n_es":"Santo Tomé y Príncipe","n_fr":"Sao Tomé-et-Principe","n_de":"São Tomé und Príncipe","n_ar":"ساو تومي وبرينسيب","n_pt":"São Tomé e Príncipe","n_it":"São Tomé e Príncipe"},"geometry":{"type":"Point","coordinates":[7.021,0.9709]}},{"type":"Feature","properties":{"name":"San Marino","sr":6,"n_en":"San Marino","n_zh":"圣马力诺","n_ja":"サンマリノ","n_ko":"산마리노","n_ru":"Сан-Марино","n_es":"San Marino","n_fr":"Saint-Marin","n_de":"San Marino","n_ar":"سان مارينو","n_pt":"San Marino","n_it":"San Marino"},"geometry":{"type":"Point","coordinates":[12.441206,43.933916]}},{"type":"Feature","properties":{"name":"Samoa","sr":4,"n_en":"Samoa","n_zh":"萨摩亚","n_ja":"サモア","n_ko":"사모아","n_ru":"Самоа","n_es":"Samoa","n_fr":"Samoa","n_de":"Samoa","n_ar":"ساموا","n_pt":"Samoa","n_it":"Samoa"},"geometry":{"type":"Point","coordinates":[-172.438241,-13.639139]}},{"type":"Feature","properties":{"name":"St. Vin. and Gren.","sr":6,"n_en":"Saint Vincent and the Grenadines","n_zh":"圣文森特和格林纳丁斯","n_ja":"セントビンセント・グレナディーン","n_ko":"세인트빈센트 그레나딘","n_ru":"Сент-Винсент и Гренадины","n_es":"San Vicente y las Granadinas","n_fr":"Saint-Vincent-et-les-Grenadines","n_de":"St. Vincent und die Grenadinen","n_ar":"سانت فينسنت والغرينادين","n_pt":"São Vicente e Granadinas","n_it":"Saint Vincent e Grenadine"},"geometry":{"type":"Point","coordinates":[-61.3359,13.0879]}},{"type":"Feature","properties":{"name":"Saint Lucia","sr":6,"n_en":"Saint Lucia","n_zh":"圣卢西亚","n_ja":"セントルシア","n_ko":"세인트루시아","n_ru":"Сент-Люсия","n_es":"Santa Lucía","n_fr":"Sainte-Lucie","n_de":"St. Lucia","n_ar":"سانت لوسيا","n_pt":"Santa Lúcia","n_it":"Saint Lucia"},"geometry":{"type":"Point","coordinates":[-60.980094,13.892371]}},{"type":"Feature","properties":{"name":"St. Kitts and Nevis","sr":6,"n_en":"Saint Kitts and Nevis","n_zh":"圣基茨和尼维斯","n_ja":"セントクリストファー・ネイビス","n_ko":"세인트키츠 네비스","n_ru":"Сент-Китс и Невис","n_es":"San Cristóbal y Nieves","n_fr":"Saint-Christophe-et-Niévès","n_de":"St. Kitts und Nevis","n_ar":"سانت كيتس ونيفيس","n_pt":"São Cristóvão e Nevis","n_it":"Saint Kitts e Nevis"},"geometry":{"type":"Point","coordinates":[-62.757975,17.336558]}},{"type":"Feature","properties":{"name":"Rwanda","sr":3,"n_en":"Rwanda","n_zh":"卢旺达","n_ja":"ルワンダ","n_ko":"르완다","n_ru":"Руанда","n_es":"Ruanda","n_fr":"Rwanda","n_de":"Ruanda","n_ar":"رواندا","n_pt":"Ruanda","n_it":"Ruanda"},"geometry":{"type":"Point","coordinates":[30.103894,-1.897196]}},{"type":"Feature","properties":{"name":"Russia","sr":2,"n_en":"Russia","n_zh":"俄罗斯","n_ja":"ロシア","n_ko":"러시아","n_ru":"Россия","n_es":"Rusia","n_fr":"Russie","n_de":"Russland","n_ar":"روسيا","n_pt":"Rússia","n_it":"Russia"},"geometry":{"type":"Point","coordinates":[44.686469,58.249357]}},{"type":"Feature","properties":{"name":"Romania","sr":3,"n_en":"Romania","n_zh":"罗马尼亚","n_ja":"ルーマニア","n_ko":"루마니아","n_ru":"Румыния","n_es":"Rumania","n_fr":"Roumanie","n_de":"Rumänien","n_ar":"رومانيا","n_pt":"Roménia","n_it":"Romania"},"geometry":{"type":"Point","coordinates":[24.972624,45.733237]}},{"type":"Feature","properties":{"name":"Qatar","sr":5,"n_en":"Qatar","n_zh":"卡塔尔","n_ja":"カタール","n_ko":"카타르","n_ru":"Катар","n_es":"Catar","n_fr":"Qatar","n_de":"Katar","n_ar":"قطر","n_pt":"Catar","n_it":"Qatar"},"geometry":{"type":"Point","coordinates":[51.143509,25.237383]}},{"type":"Feature","properties":{"name":"Portugal","sr":2,"n_en":"Portugal","n_zh":"葡萄牙","n_ja":"ポルトガル","n_ko":"포르투갈","n_ru":"Португалия","n_es":"Portugal","n_fr":"Portugal","n_de":"Portugal","n_ar":"البرتغال","n_pt":"Portugal","n_it":"Portogallo"},"geometry":{"type":"Point","coordinates":[-8.271754,39.606675]}},{"type":"Feature","properties":{"name":"Poland","sr":3,"n_en":"Poland","n_zh":"波兰","n_ja":"ポーランド","n_ko":"폴란드","n_ru":"Польша","n_es":"Polonia","n_fr":"Pologne","n_de":"Polen","n_ar":"بولندا","n_pt":"Polónia","n_it":"Polonia"},"geometry":{"type":"Point","coordinates":[19.490468,51.990316]}},{"type":"Feature","properties":{"name":"Philippines","sr":2,"n_en":"Philippines","n_zh":"菲律宾","n_ja":"フィリピン","n_ko":"필리핀","n_ru":"Филиппины","n_es":"Filipinas","n_fr":"Philippines","n_de":"Philippinen","n_ar":"الفلبين","n_pt":"Filipinas","n_it":"Filippine"},"geometry":{"type":"Point","coordinates":[122.465,11.198]}},{"type":"Feature","properties":{"name":"Peru","sr":2,"n_en":"Peru","n_zh":"秘鲁","n_ja":"ペルー","n_ko":"페루","n_ru":"Перу","n_es":"Perú","n_fr":"Pérou","n_de":"Peru","n_ar":"بيرو","n_pt":"Peru","n_it":"Perù"},"geometry":{"type":"Point","coordinates":[-72.90016,-12.976679]}},{"type":"Feature","properties":{"name":"Paraguay","sr":4,"n_en":"Paraguay","n_zh":"巴拉圭","n_ja":"パラグアイ","n_ko":"파라과이","n_ru":"Парагвай","n_es":"Paraguay","n_fr":"Paraguay","n_de":"Paraguay","n_ar":"باراغواي","n_pt":"Paraguai","n_it":"Paraguay"},"geometry":{"type":"Point","coordinates":[-60.146394,-21.674509]}},{"type":"Feature","properties":{"name":"Papua New Guinea","sr":2,"n_en":"Papua New Guinea","n_zh":"巴布亚新几内亚","n_ja":"パプアニューギニア","n_ko":"파푸아뉴기니","n_ru":"Папуа — Новая Гвинея","n_es":"Papúa Nueva Guinea","n_fr":"Papouasie-Nouvelle-Guinée","n_de":"Papua-Neuguinea","n_ar":"بابوا غينيا الجديدة","n_pt":"Papua-Nova Guiné","n_it":"Papua Nuova Guinea"},"geometry":{"type":"Point","coordinates":[143.910216,-5.695285]}},{"type":"Feature","properties":{"name":"Panama","sr":4,"n_en":"Panama","n_zh":"巴拿马","n_ja":"パナマ","n_ko":"파나마","n_ru":"Панама","n_es":"Panamá","n_fr":"Panama","n_de":"Panama","n_ar":"بنما","n_pt":"Panamá","n_it":"Panama"},"geometry":{"type":"Point","coordinates":[-80.352106,8.72198]}},{"type":"Feature","properties":{"name":"Palau","sr":6,"n_en":"Palau","n_zh":"帕劳","n_ja":"パラオ","n_ko":"팔라우","n_ru":"Палау","n_es":"Palaos","n_fr":"Palaos","n_de":"Palau","n_ar":"بالاو","n_pt":"Palau","n_it":"Palau"},"geometry":{"type":"Point","coordinates":[134.580157,7.518252]}},{"type":"Feature","properties":{"name":"Pakistan","sr":2,"n_en":"Pakistan","n_zh":"巴基斯坦","n_ja":"パキスタン","n_ko":"파키스탄","n_ru":"Пакистан","n_es":"Pakistán","n_fr":"Pakistan","n_de":"Pakistan","n_ar":"باكستان","n_pt":"Paquistão","n_it":"Pakistan"},"geometry":{"type":"Point","coordinates":[68.545632,29.328389]}},{"type":"Feature","properties":{"name":"Oman","sr":4,"n_en":"Oman","n_zh":"阿曼","n_ja":"オマーン","n_ko":"오만","n_ru":"Оман","n_es":"Omán","n_fr":"Oman","n_de":"Oman","n_ar":"سلطنة عمان","n_pt":"Omã","n_it":"Oman"},"geometry":{"type":"Point","coordinates":[57.336553,22.120427]}},{"type":"Feature","properties":{"name":"Norway","sr":3,"n_en":"Norway","n_zh":"挪威","n_ja":"ノルウェー","n_ko":"노르웨이","n_ru":"Норвегия","n_es":"Noruega","n_fr":"Norvège","n_de":"Norwegen","n_ar":"النرويج","n_pt":"Noruega","n_it":"Norvegia"},"geometry":{"type":"Point","coordinates":[9.679975,61.357092]}},{"type":"Feature","properties":{"name":"North Korea","sr":3,"n_en":"North Korea","n_zh":"朝鲜民主主义人民共和国","n_ja":"朝鮮民主主義人民共和国","n_ko":"조선민주주의인민공화국","n_ru":"КНДР","n_es":"Corea del Norte","n_fr":"Corée du Nord","n_de":"Nordkorea","n_ar":"كوريا الشمالية","n_pt":"Coreia do Norte","n_it":"Corea del Nord"},"geometry":{"type":"Point","coordinates":[126.444516,39.885252]}},{"type":"Feature","properties":{"name":"Nigeria","sr":2,"n_en":"Nigeria","n_zh":"尼日利亚","n_ja":"ナイジェリア","n_ko":"나이지리아","n_ru":"Нигерия","n_es":"Nigeria","n_fr":"Nigeria","n_de":"Nigeria","n_ar":"نيجيريا","n_pt":"Nigéria","n_it":"Nigeria"},"geometry":{"type":"Point","coordinates":[7.50322,9.439799]}},{"type":"Feature","properties":{"name":"Niger","sr":3,"n_en":"Niger","n_zh":"尼日尔","n_ja":"ニジェール","n_ko":"니제르","n_ru":"Нигер","n_es":"Níger","n_fr":"Niger","n_de":"Niger","n_ar":"النيجر","n_pt":"Níger","n_it":"Niger"},"geometry":{"type":"Point","coordinates":[9.504356,17.446195]}},{"type":"Feature","properties":{"name":"Nicaragua","sr":5,"n_en":"Nicaragua","n_zh":"尼加拉瓜","n_ja":"ニカラグア","n_ko":"니카라과","n_ru":"Никарагуа","n_es":"Nicaragua","n_fr":"Nicaragua","n_de":"Nicaragua","n_ar":"نيكاراغوا","n_pt":"Nicarágua","n_it":"Nicaragua"},"geometry":{"type":"Point","coordinates":[-85.069347,12.670697]}},{"type":"Feature","properties":{"name":"New Zealand","sr":2,"n_en":"New Zealand","n_zh":"新西兰","n_ja":"ニュージーランド","n_ko":"뉴질랜드","n_ru":"Новая Зеландия","n_es":"Nueva Zelanda","n_fr":"Nouvelle-Zélande","n_de":"Neuseeland","n_ar":"نيوزيلندا","n_pt":"Nova Zelândia","n_it":"Nuova Zelanda"},"geometry":{"type":"Point","coordinates":[172.787,-39.759]}},{"type":"Feature","properties":{"name":"Niue","sr":4,"n_en":"Niue","n_zh":"纽埃","n_ja":"ニウエ","n_ko":"니우에","n_ru":"Ниуэ","n_es":"Niue","n_fr":"Niue","n_de":"Niue","n_ar":"نييوي","n_pt":"Niue","n_it":"Niue"},"geometry":{"type":"Point","coordinates":[-169.862565,-19.045956]}},{"type":"Feature","properties":{"name":"Cook Is.","sr":4,"n_en":"Cook Islands","n_zh":"库克群岛","n_ja":"クック諸島","n_ko":"쿡 제도","n_ru":"Острова Кука","n_es":"Islas Cook","n_fr":"Îles Cook","n_de":"Cookinseln","n_ar":"جزر كوك","n_pt":"Ilhas Cook","n_it":"Isole Cook"},"geometry":{"type":"Point","coordinates":[-159.785675,-21.215993]}},{"type":"Feature","properties":{"name":"Netherlands","sr":5,"n_en":"Netherlands","n_zh":"荷兰","n_ja":"オランダ","n_ko":"네덜란드","n_ru":"Нидерланды","n_es":"Países Bajos","n_fr":"Pays-Bas","n_de":"Niederlande","n_ar":"هولندا","n_pt":"Países Baixos","n_it":"Paesi Bassi"},"geometry":{"type":"Point","coordinates":[5.61144,52.422211]}},{"type":"Feature","properties":{"name":"Aruba","sr":5,"n_en":"Aruba","n_zh":"阿鲁巴","n_ja":"アルバ","n_ko":"아루바","n_ru":"Аруба","n_es":"Aruba","n_fr":"Aruba","n_de":"Aruba","n_ar":"أروبا","n_pt":"Aruba","n_it":"Aruba"},"geometry":{"type":"Point","coordinates":[-69.972795,12.5174]}},{"type":"Feature","properties":{"name":"Curaçao","sr":5,"n_en":"Curaçao","n_zh":"库拉索","n_ja":"キュラソー","n_ko":"퀴라소","n_ru":"Кюрасао","n_es":"Curazao","n_fr":"Curaçao","n_de":"Curaçao","n_ar":"كوراساو","n_pt":"Curaçao","n_it":"Curaçao"},"geometry":{"type":"Point","coordinates":[-68.920578,12.145039]}},{"type":"Feature","properties":{"name":"Nepal","sr":3,"n_en":"Nepal","n_zh":"尼泊尔","n_ja":"ネパール","n_ko":"네팔","n_ru":"Непал","n_es":"Nepal","n_fr":"Népal","n_de":"Nepal","n_ar":"نيبال","n_pt":"Nepal","n_it":"Nepal"},"geometry":{"type":"Point","coordinates":[83.639914,28.297925]}},{"type":"Feature","properties":{"name":"Nauru","sr":6,"n_en":"Nauru","n_zh":"瑙鲁","n_ja":"ナウル","n_ko":"나우루","n_ru":"Науру","n_es":"Nauru","n_fr":"Nauru","n_de":"Nauru","n_ar":"ناورو","n_pt":"Nauru","n_it":"Nauru"},"geometry":{"type":"Point","coordinates":[166.932644,-0.520261]}},{"type":"Feature","properties":{"name":"Namibia","sr":3,"n_en":"Namibia","n_zh":"纳米比亚","n_ja":"ナミビア","n_ko":"나미비아","n_ru":"Намибия","n_es":"Namibia","n_fr":"Namibie","n_de":"Namibia","n_ar":"ناميبيا","n_pt":"Namíbia","n_it":"Namibia"},"geometry":{"type":"Point","coordinates":[17.108166,-20.575298]}},{"type":"Feature","properties":{"name":"Mozambique","sr":3,"n_en":"Mozambique","n_zh":"莫桑比克","n_ja":"モザンビーク","n_ko":"모잠비크","n_ru":"Мозамбик","n_es":"Mozambique","n_fr":"Mozambique","n_de":"Mosambik","n_ar":"موزمبيق","n_pt":"Moçambique","n_it":"Mozambico"},"geometry":{"type":"Point","coordinates":[37.83789,-13.94323]}},{"type":"Feature","properties":{"name":"Morocco","sr":3,"n_en":"Morocco","n_zh":"摩洛哥","n_ja":"モロッコ","n_ko":"모로코","n_ru":"Марокко","n_es":"Marruecos","n_fr":"Maroc","n_de":"Marokko","n_ar":"المغرب","n_pt":"Marrocos","n_it":"Marocco"},"geometry":{"type":"Point","coordinates":[-7.187296,31.650723]}},{"type":"Feature","properties":{"name":"W. Sahara","sr":7,"n_en":"Western Sahara","n_zh":"西撒哈拉","n_ja":"西サハラ","n_ko":"서사하라","n_ru":"Западная Сахара","n_es":"Sahara Occidental","n_fr":"Sahara occidental","n_de":"Westsahara","n_ar":"الصحراء الغربية","n_pt":"Sara Ocidental","n_it":"Sahara Occidentale"},"geometry":{"type":"Point","coordinates":[-12.630304,23.967592]}},{"type":"Feature","properties":{"name":"Montenegro","sr":6,"n_en":"Montenegro","n_zh":"黑山","n_ja":"モンテネグロ","n_ko":"몬테네그로","n_ru":"Черногория","n_es":"Montenegro","n_fr":"Monténégro","n_de":"Montenegro","n_ar":"الجبل الأسود","n_pt":"Montenegro","n_it":"Montenegro"},"geometry":{"type":"Point","coordinates":[19.143727,42.803101]}},{"type":"Feature","properties":{"name":"Mongolia","sr":3,"n_en":"Mongolia","n_zh":"蒙古国","n_ja":"モンゴル国","n_ko":"몽골","n_ru":"Монголия","n_es":"Mongolia","n_fr":"Mongolie","n_de":"Mongolei","n_ar":"منغوليا","n_pt":"Mongólia","n_it":"Mongolia"},"geometry":{"type":"Point","coordinates":[104.150405,45.997488]}},{"type":"Feature","properties":{"name":"Moldova","sr":6,"n_en":"Moldova","n_zh":"摩尔多瓦","n_ja":"モルドバ","n_ko":"몰도바","n_ru":"Молдавия","n_es":"Moldavia","n_fr":"Moldavie","n_de":"Republik Moldau","n_ar":"مولدوفا","n_pt":"Moldávia","n_it":"Moldavia"},"geometry":{"type":"Point","coordinates":[28.487904,47.434999]}},{"type":"Feature","properties":{"name":"Monaco","sr":6,"n_en":"Monaco","n_zh":"摩纳哥","n_ja":"モナコ","n_ko":"모나코","n_ru":"Монако","n_es":"Mónaco","n_fr":"Monaco","n_de":"Monaco","n_ar":"موناكو","n_pt":"Mónaco","n_it":"Principato di Monaco"},"geometry":{"type":"Point","coordinates":[7.398291,43.739652]}},{"type":"Feature","properties":{"name":"Mexico","sr":2,"n_en":"Mexico","n_zh":"墨西哥","n_ja":"メキシコ","n_ko":"멕시코","n_ru":"Мексика","n_es":"México","n_fr":"Mexique","n_de":"Mexiko","n_ar":"المكسيك","n_pt":"México","n_it":"Messico"},"geometry":{"type":"Point","coordinates":[-102.289448,23.919988]}},{"type":"Feature","properties":{"name":"Mauritius","sr":5,"n_en":"Mauritius","n_zh":"毛里求斯","n_ja":"モーリシャス","n_ko":"모리셔스","n_ru":"Маврикий","n_es":"Mauricio","n_fr":"Maurice","n_de":"Mauritius","n_ar":"موريشيوس","n_pt":"Maurícia","n_it":"Mauritius"},"geometry":{"type":"Point","coordinates":[57.565848,-20.299506]}},{"type":"Feature","properties":{"name":"Mauritania","sr":3,"n_en":"Mauritania","n_zh":"毛里塔尼亚","n_ja":"モーリタニア","n_ko":"모리타니","n_ru":"Мавритания","n_es":"Mauritania","n_fr":"Mauritanie","n_de":"Mauretanien","n_ar":"موريتانيا","n_pt":"Mauritânia","n_it":"Mauritania"},"geometry":{"type":"Point","coordinates":[-9.740299,19.587062]}},{"type":"Feature","properties":{"name":"Malta","sr":5,"n_en":"Malta","n_zh":"马耳他","n_ja":"マルタ","n_ko":"몰타","n_ru":"Мальта","n_es":"Malta","n_fr":"Malte","n_de":"Malta","n_ar":"مالطا","n_pt":"Malta","n_it":"Malta"},"geometry":{"type":"Point","coordinates":[14.433005,35.892886]}},{"type":"Feature","properties":{"name":"Mali","sr":3,"n_en":"Mali","n_zh":"马里","n_ja":"マリ共和国","n_ko":"말리","n_ru":"Мали","n_es":"Malí","n_fr":"Mali","n_de":"Mali","n_ar":"مالي","n_pt":"Mali","n_it":"Mali"},"geometry":{"type":"Point","coordinates":[-2.038455,18.692713]}},{"type":"Feature","properties":{"name":"Maldives","sr":5,"n_en":"Maldives","n_zh":"马尔代夫","n_ja":"モルディブ","n_ko":"몰디브","n_ru":"Мальдивы","n_es":"Maldivas","n_fr":"Maldives","n_de":"Malediven","n_ar":"المالديف","n_pt":"Maldivas","n_it":"Maldive"},"geometry":{"type":"Point","coordinates":[73.507554,4.174441]}},{"type":"Feature","properties":{"name":"Malaysia","sr":3,"n_en":"Malaysia","n_zh":"马来西亚","n_ja":"マレーシア","n_ko":"말레이시아","n_ru":"Малайзия","n_es":"Malasia","n_fr":"Malaisie","n_de":"Malaysia","n_ar":"ماليزيا","n_pt":"Malásia","n_it":"Malaysia"},"geometry":{"type":"Point","coordinates":[113.83708,2.528667]}},{"type":"Feature","properties":{"name":"Malawi","sr":6,"n_en":"Malawi","n_zh":"马拉维","n_ja":"マラウイ","n_ko":"말라위","n_ru":"Малави","n_es":"Malaui","n_fr":"Malawi","n_de":"Malawi","n_ar":"مالاوي","n_pt":"Malawi","n_it":"Malawi"},"geometry":{"type":"Point","coordinates":[33.608082,-13.386737]}},{"type":"Feature","properties":{"name":"Madagascar","sr":3,"n_en":"Madagascar","n_zh":"马达加斯加","n_ja":"マダガスカル","n_ko":"마다가스카르","n_ru":"Мадагаскар","n_es":"Madagascar","n_fr":"Madagascar","n_de":"Madagaskar","n_ar":"مدغشقر","n_pt":"Madagáscar","n_it":"Madagascar"},"geometry":{"type":"Point","coordinates":[46.704241,-18.628288]}},{"type":"Feature","properties":{"name":"North Macedonia","sr":6,"n_en":"North Macedonia","n_zh":"北马其顿","n_ja":"北マケドニア","n_ko":"북마케도니아","n_ru":"Северная Македония","n_es":"Macedonia del Norte","n_fr":"Macédoine du Nord","n_de":"Nordmazedonien","n_ar":"مقدونيا الشمالية","n_pt":"Macedónia do Norte","n_it":"Macedonia del Nord"},"geometry":{"type":"Point","coordinates":[21.555839,41.558223]}},{"type":"Feature","properties":{"name":"Luxembourg","sr":6,"n_en":"Luxembourg","n_zh":"卢森堡","n_ja":"ルクセンブルク","n_ko":"룩셈부르크","n_ru":"Люксембург","n_es":"Luxemburgo","n_fr":"Luxembourg","n_de":"Luxemburg","n_ar":"لوكسمبورغ","n_pt":"Luxemburgo","n_it":"Lussemburgo"},"geometry":{"type":"Point","coordinates":[6.07762,49.733732]}},{"type":"Feature","properties":{"name":"Lithuania","sr":5,"n_en":"Lithuania","n_zh":"立陶宛","n_ja":"リトアニア","n_ko":"리투아니아","n_ru":"Литва","n_es":"Lituania","n_fr":"Lituanie","n_de":"Litauen","n_ar":"ليتوانيا","n_pt":"Lituânia","n_it":"Lituania"},"geometry":{"type":"Point","coordinates":[24.089932,55.103703]}},{"type":"Feature","properties":{"name":"Liechtenstein","sr":6,"n_en":"Liechtenstein","n_zh":"列支敦士登","n_ja":"リヒテンシュタイン","n_ko":"리히텐슈타인","n_ru":"Лихтенштейн","n_es":"Liechtenstein","n_fr":"Liechtenstein","n_de":"Liechtenstein","n_ar":"ليختنشتاين","n_pt":"Liechtenstein","n_it":"Liechtenstein"},"geometry":{"type":"Point","coordinates":[9.559439,47.111405]}},{"type":"Feature","properties":{"name":"Libya","sr":3,"n_en":"Libya","n_zh":"利比亚","n_ja":"リビア","n_ko":"리비아","n_ru":"Ливия","n_es":"Libia","n_fr":"Libye","n_de":"Libyen","n_ar":"ليبيا","n_pt":"Líbia","n_it":"Libia"},"geometry":{"type":"Point","coordinates":[18.011015,26.638944]}},{"type":"Feature","properties":{"name":"Liberia","sr":4,"n_en":"Liberia","n_zh":"利比里亚","n_ja":"リベリア","n_ko":"라이베리아","n_ru":"Либерия","n_es":"Liberia","n_fr":"Liberia","n_de":"Liberia","n_ar":"ليبيريا","n_pt":"Libéria","n_it":"Liberia"},"geometry":{"type":"Point","coordinates":[-9.460379,6.447177]}},{"type":"Feature","properties":{"name":"Lesotho","sr":6,"n_en":"Lesotho","n_zh":"莱索托","n_ja":"レソト","n_ko":"레소토","n_ru":"Лесото","n_es":"Lesoto","n_fr":"Lesotho","n_de":"Lesotho","n_ar":"ليسوتو","n_pt":"Lesoto","n_it":"Lesotho"},"geometry":{"type":"Point","coordinates":[28.246639,-29.480158]}},{"type":"Feature","properties":{"name":"Lebanon","sr":5,"n_en":"Lebanon","n_zh":"黎巴嫩","n_ja":"レバノン","n_ko":"레바논","n_ru":"Ливан","n_es":"Líbano","n_fr":"Liban","n_de":"Libanon","n_ar":"لبنان","n_pt":"Líbano","n_it":"Libano"},"geometry":{"type":"Point","coordinates":[35.992892,34.133368]}},{"type":"Feature","properties":{"name":"Latvia","sr":5,"n_en":"Latvia","n_zh":"拉脱维亚","n_ja":"ラトビア","n_ko":"라트비아","n_ru":"Латвия","n_es":"Letonia","n_fr":"Lettonie","n_de":"Lettland","n_ar":"لاتفيا","n_pt":"Letónia","n_it":"Lettonia"},"geometry":{"type":"Point","coordinates":[25.458723,57.066872]}},{"type":"Feature","properties":{"name":"Laos","sr":4,"n_en":"Laos","n_zh":"老挝","n_ja":"ラオス","n_ko":"라오스","n_ru":"Лаос","n_es":"Laos","n_fr":"Laos","n_de":"Laos","n_ar":"لاوس","n_pt":"Laos","n_it":"Laos"},"geometry":{"type":"Point","coordinates":[102.533912,19.431821]}},{"type":"Feature","properties":{"name":"Kyrgyzstan","sr":4,"n_en":"Kyrgyzstan","n_zh":"吉尔吉斯斯坦","n_ja":"キルギス","n_ko":"키르기스스탄","n_ru":"Киргизия","n_es":"Kirguistán","n_fr":"Kirghizistan","n_de":"Kirgisistan","n_ar":"قيرغيزستان","n_pt":"Quirguistão","n_it":"Kirghizistan"},"geometry":{"type":"Point","coordinates":[74.532637,41.66854]}},{"type":"Feature","properties":{"name":"Kuwait","sr":6,"n_en":"Kuwait","n_zh":"科威特","n_ja":"クウェート","n_ko":"쿠웨이트","n_ru":"Кувейт","n_es":"Kuwait","n_fr":"Koweït","n_de":"Kuwait","n_ar":"الكويت","n_pt":"Kuwait","n_it":"Kuwait"},"geometry":{"type":"Point","coordinates":[47.313999,29.413628]}},{"type":"Feature","properties":{"name":"Kosovo","sr":6,"n_en":"Kosovo","n_zh":"科索沃","n_ja":"コソボ共和国","n_ko":"코소보","n_ru":"Республика Косово","n_es":"Kosovo","n_fr":"Kosovo","n_de":"Kosovo","n_ar":"كوسوفو","n_pt":"Kosovo","n_it":"Kosovo"},"geometry":{"type":"Point","coordinates":[20.860719,42.593587]}},{"type":"Feature","properties":{"name":"Kiribati","sr":6,"n_en":"Kiribati","n_zh":"基里巴斯","n_ja":"キリバス","n_ko":"키리바시","n_ru":"Кирибати","n_es":"Kiribati","n_fr":"Kiribati","n_de":"Kiribati","n_ar":"كيريباتي","n_pt":"Kiribati","n_it":"Kiribati"},"geometry":{"type":"Point","coordinates":[-157.384577,1.820437]}},{"type":"Feature","properties":{"name":"Kenya","sr":2,"n_en":"Kenya","n_zh":"肯尼亚","n_ja":"ケニア","n_ko":"케냐","n_ru":"Кения","n_es":"Kenia","n_fr":"Kenya","n_de":"Kenia","n_ar":"كينيا","n_pt":"Quénia","n_it":"Kenya"},"geometry":{"type":"Point","coordinates":[37.907632,0.549043]}},{"type":"Feature","properties":{"name":"Kazakhstan","sr":3,"n_en":"Kazakhstan","n_zh":"哈萨克斯坦","n_ja":"カザフスタン","n_ko":"카자흐스탄","n_ru":"Казахстан","n_es":"Kazajistán","n_fr":"Kazakhstan","n_de":"Kasachstan","n_ar":"كازاخستان","n_pt":"Cazaquistão","n_it":"Kazakistan"},"geometry":{"type":"Point","coordinates":[68.685548,49.054149]}},{"type":"Feature","properties":{"name":"Jordan","sr":4,"n_en":"Jordan","n_zh":"约旦","n_ja":"ヨルダン","n_ko":"요르단","n_ru":"Иордания","n_es":"Jordania","n_fr":"Jordanie","n_de":"Jordanien","n_ar":"الأردن","n_pt":"Jordânia","n_it":"Giordania"},"geometry":{"type":"Point","coordinates":[36.375991,30.805025]}},{"type":"Feature","properties":{"name":"Japan","sr":2,"n_en":"Japan","n_zh":"日本","n_ja":"日本","n_ko":"일본","n_ru":"Япония","n_es":"Japón","n_fr":"Japon","n_de":"Japan","n_ar":"اليابان","n_pt":"Japão","n_it":"Giappone"},"geometry":{"type":"Point","coordinates":[138.44217,36.142538]}},{"type":"Feature","properties":{"name":"Jamaica","sr":4,"n_en":"Jamaica","n_zh":"牙买加","n_ja":"ジャマイカ","n_ko":"자메이카","n_ru":"Ямайка","n_es":"Jamaica","n_fr":"Jamaïque","n_de":"Jamaika","n_ar":"جامايكا","n_pt":"Jamaica","n_it":"Giamaica"},"geometry":{"type":"Point","coordinates":[-77.318767,18.137124]}},{"type":"Feature","properties":{"name":"Italy","sr":2,"n_en":"Italy","n_zh":"意大利","n_ja":"イタリア","n_ko":"이탈리아","n_ru":"Италия","n_es":"Italia","n_fr":"Italie","n_de":"Italien","n_ar":"إيطاليا","n_pt":"Itália","n_it":"Italia"},"geometry":{"type":"Point","coordinates":[11.076907,44.732482]}},{"type":"Feature","properties":{"name":"Israel","sr":4,"n_en":"Israel","n_zh":"以色列","n_ja":"イスラエル","n_ko":"이스라엘","n_ru":"Израиль","n_es":"Israel","n_fr":"Israël","n_de":"Israel","n_ar":"إسرائيل","n_pt":"Israel","n_it":"Israele"},"geometry":{"type":"Point","coordinates":[34.847915,30.911148]}},{"type":"Feature","properties":{"name":"Palestine","sr":5,"n_en":"Palestine","n_zh":"巴勒斯坦","n_ja":"パレスチナ","n_ko":"팔레스타인","n_ru":"Палестина","n_es":"Palestina","n_fr":"Palestine","n_de":"Palästina","n_ar":"فلسطين","n_pt":"Palestina","n_it":"Palestina"},"geometry":{"type":"Point","coordinates":[35.291341,32.047431]}},{"type":"Feature","properties":{"name":"Ireland","sr":3,"n_en":"Ireland","n_zh":"爱尔兰","n_ja":"アイルランド","n_ko":"아일랜드","n_ru":"Ирландия","n_es":"Irlanda","n_fr":"Irlande","n_de":"Irland","n_ar":"جمهورية أيرلندا","n_pt":"República da Irlanda","n_it":"Irlanda"},"geometry":{"type":"Point","coordinates":[-7.798588,53.078726]}},{"type":"Feature","properties":{"name":"Iraq","sr":3,"n_en":"Iraq","n_zh":"伊拉克","n_ja":"イラク","n_ko":"이라크","n_ru":"Ирак","n_es":"Irak","n_fr":"Irak","n_de":"Irak","n_ar":"العراق","n_pt":"Iraque","n_it":"Iraq"},"geometry":{"type":"Point","coordinates":[43.26181,33.09403]}},{"type":"Feature","properties":{"name":"Iran","sr":2,"n_en":"Iran","n_zh":"伊朗","n_ja":"イラン","n_ko":"이란","n_ru":"Иран","n_es":"Irán","n_fr":"Iran","n_de":"Iran","n_ar":"إيران","n_pt":"Irão","n_it":"Iran"},"geometry":{"type":"Point","coordinates":[54.931495,32.166225]}},{"type":"Feature","properties":{"name":"Indonesia","sr":2,"n_en":"Indonesia","n_zh":"印度尼西亚","n_ja":"インドネシア","n_ko":"인도네시아","n_ru":"Индонезия","n_es":"Indonesia","n_fr":"Indonésie","n_de":"Indonesien","n_ar":"إندونيسيا","n_pt":"Indonésia","n_it":"Indonesia"},"geometry":{"type":"Point","coordinates":[101.892949,-0.954404]}},{"type":"Feature","properties":{"name":"India","sr":2,"n_en":"India","n_zh":"印度","n_ja":"インド","n_ko":"인도","n_ru":"Индия","n_es":"India","n_fr":"Inde","n_de":"Indien","n_ar":"الهند","n_pt":"Índia","n_it":"India"},"geometry":{"type":"Point","coordinates":[79.358105,22.686852]}},{"type":"Feature","properties":{"name":"Iceland","sr":3,"n_en":"Iceland","n_zh":"冰岛","n_ja":"アイスランド","n_ko":"아이슬란드","n_ru":"Исландия","n_es":"Islandia","n_fr":"Islande","n_de":"Island","n_ar":"آيسلندا","n_pt":"Islândia","n_it":"Islanda"},"geometry":{"type":"Point","coordinates":[-18.673711,64.779286]}},{"type":"Feature","properties":{"name":"Hungary","sr":5,"n_en":"Hungary","n_zh":"匈牙利","n_ja":"ハンガリー","n_ko":"헝가리","n_ru":"Венгрия","n_es":"Hungría","n_fr":"Hongrie","n_de":"Ungarn","n_ar":"المجر","n_pt":"Hungria","n_it":"Ungheria"},"geometry":{"type":"Point","coordinates":[19.447867,47.086841]}},{"type":"Feature","properties":{"name":"Honduras","sr":5,"n_en":"Honduras","n_zh":"洪都拉斯","n_ja":"ホンジュラス","n_ko":"온두라스","n_ru":"Гондурас","n_es":"Honduras","n_fr":"Honduras","n_de":"Honduras","n_ar":"هندوراس","n_pt":"Honduras","n_it":"Honduras"},"geometry":{"type":"Point","coordinates":[-86.887604,14.794801]}},{"type":"Feature","properties":{"name":"Haiti","sr":5,"n_en":"Haiti","n_zh":"海地","n_ja":"ハイチ","n_ko":"아이티","n_ru":"Республика Гаити","n_es":"Haití","n_fr":"Haïti","n_de":"Haiti","n_ar":"هايتي","n_pt":"Haiti","n_it":"Haiti"},"geometry":{"type":"Point","coordinates":[-72.224051,19.263784]}},{"type":"Feature","properties":{"name":"Guyana","sr":4,"n_en":"Guyana","n_zh":"圭亚那","n_ja":"ガイアナ","n_ko":"가이아나","n_ru":"Гайана","n_es":"Guyana","n_fr":"Guyana","n_de":"Guyana","n_ar":"غيانا","n_pt":"Guiana","n_it":"Guyana"},"geometry":{"type":"Point","coordinates":[-58.942643,5.124317]}},{"type":"Feature","properties":{"name":"Guinea-Bissau","sr":6,"n_en":"Guinea-Bissau","n_zh":"几内亚比绍","n_ja":"ギニアビサウ","n_ko":"기니비사우","n_ru":"Гвинея-Бисау","n_es":"Guinea-Bisáu","n_fr":"Guinée-Bissau","n_de":"Guinea-Bissau","n_ar":"غينيا بيساو","n_pt":"Guiné-Bissau","n_it":"Guinea-Bissau"},"geometry":{"type":"Point","coordinates":[-14.52413,12.163712]}},{"type":"Feature","properties":{"name":"Guinea","sr":3,"n_en":"Guinea","n_zh":"几内亚","n_ja":"ギニア","n_ko":"기니","n_ru":"Гвинея","n_es":"Guinea","n_fr":"Guinée","n_de":"Guinea","n_ar":"غينيا","n_pt":"Guiné","n_it":"Guinea"},"geometry":{"type":"Point","coordinates":[-10.016402,10.618516]}},{"type":"Feature","properties":{"name":"Guatemala","sr":3,"n_en":"Guatemala","n_zh":"危地马拉","n_ja":"グアテマラ","n_ko":"과테말라","n_ru":"Гватемала","n_es":"Guatemala","n_fr":"Guatemala","n_de":"Guatemala","n_ar":"غواتيمالا","n_pt":"Guatemala","n_it":"Guatemala"},"geometry":{"type":"Point","coordinates":[-90.497134,14.982133]}},{"type":"Feature","properties":{"name":"Grenada","sr":6,"n_en":"Grenada","n_zh":"格林纳达","n_ja":"グレナダ","n_ko":"그레나다","n_ru":"Гренада","n_es":"Granada","n_fr":"Grenade","n_de":"Grenada","n_ar":"غرينادا","n_pt":"Granada","n_it":"Grenada"},"geometry":{"type":"Point","coordinates":[-61.680461,12.113156]}},{"type":"Feature","properties":{"name":"Greece","sr":3,"n_en":"Greece","n_zh":"希腊","n_ja":"ギリシャ","n_ko":"그리스","n_ru":"Греция","n_es":"Grecia","n_fr":"Grèce","n_de":"Griechenland","n_ar":"اليونان","n_pt":"Grécia","n_it":"Grecia"},"geometry":{"type":"Point","coordinates":[21.72568,39.492763]}},{"type":"Feature","properties":{"name":"Ghana","sr":3,"n_en":"Ghana","n_zh":"加纳","n_ja":"ガーナ","n_ko":"가나","n_ru":"Гана","n_es":"Ghana","n_fr":"Ghana","n_de":"Ghana","n_ar":"غانا","n_pt":"Gana","n_it":"Ghana"},"geometry":{"type":"Point","coordinates":[-1.036941,7.717639]}},{"type":"Feature","properties":{"name":"Germany","sr":2,"n_en":"Germany","n_zh":"德国","n_ja":"ドイツ","n_ko":"독일","n_ru":"Германия","n_es":"Alemania","n_fr":"Allemagne","n_de":"Deutschland","n_ar":"ألمانيا","n_pt":"Alemanha","n_it":"Germania"},"geometry":{"type":"Point","coordinates":[9.678348,50.961733]}},{"type":"Feature","properties":{"name":"Georgia","sr":5,"n_en":"Georgia","n_zh":"格鲁吉亚","n_ja":"ジョージア","n_ko":"조지아","n_ru":"Грузия","n_es":"Georgia","n_fr":"Géorgie","n_de":"Georgien","n_ar":"جورجيا","n_pt":"Geórgia","n_it":"Georgia"},"geometry":{"type":"Point","coordinates":[43.735724,41.870087]}},{"type":"Feature","properties":{"name":"Gambia","sr":6,"n_en":"The Gambia","n_zh":"冈比亚","n_ja":"ガンビア","n_ko":"감비아","n_ru":"Гамбия","n_es":"Gambia","n_fr":"Gambie","n_de":"Gambia","n_ar":"غامبيا","n_pt":"Gâmbia","n_it":"Gambia"},"geometry":{"type":"Point","coordinates":[-14.998318,13.641721]}},{"type":"Feature","properties":{"name":"Gabon","sr":4,"n_en":"Gabon","n_zh":"加蓬","n_ja":"ガボン","n_ko":"가봉","n_ru":"Габон","n_es":"Gabón","n_fr":"Gabon","n_de":"Gabun","n_ar":"الغابون","n_pt":"Gabão","n_it":"Gabon"},"geometry":{"type":"Point","coordinates":[11.835939,-0.437739]}},{"type":"Feature","properties":{"name":"France","sr":2,"n_en":"France","n_zh":"法国","n_ja":"フランス","n_ko":"프랑스","n_ru":"Франция","n_es":"Francia","n_fr":"France","n_de":"Frankreich","n_ar":"فرنسا","n_pt":"França","n_it":"Francia"},"geometry":{"type":"Point","coordinates":[2.552275,46.696113]}},{"type":"Feature","properties":{"name":"St. Pierre and Miquelon","sr":4,"n_en":"Saint Pierre and Miquelon","n_zh":"圣皮埃尔和密克隆","n_ja":"サンピエール島・ミクロン島","n_ko":"생피에르 미클롱","n_ru":"Сен-Пьер и Микелон","n_es":"San Pedro y Miquelón","n_fr":"Saint-Pierre-et-Miquelon","n_de":"Saint-Pierre und Miquelon","n_ar":"سان بيير وميكلون","n_pt":"Saint-Pierre e Miquelon","n_it":"Saint-Pierre e Miquelon"},"geometry":{"type":"Point","coordinates":[-56.332352,47.040344]}},{"type":"Feature","properties":{"name":"Wallis and Futuna Is.","sr":4,"n_en":"Wallis and Futuna","n_zh":"瓦利斯和富图纳","n_ja":"ウォリス・フツナ","n_ko":"왈리스 푸투나","n_ru":"Уоллис и Футуна","n_es":"Wallis y Futuna","n_fr":"Wallis-et-Futuna","n_de":"Wallis und Futuna","n_ar":"واليس وفوتونا","n_pt":"Wallis e Futuna","n_it":"Wallis e Futuna"},"geometry":{"type":"Point","coordinates":[-178.137436,-14.286415]}},{"type":"Feature","properties":{"name":"St-Martin","sr":6,"n_en":"Saint Martin","n_zh":"法属圣马丁","n_ja":"サン・マルタン","n_ko":"생마르탱","n_ru":"Сен-Мартен","n_es":"San Martín","n_fr":"Saint-Martin","n_de":"Saint-Martin","n_ar":"تجمع سان مارتين","n_pt":"São Martinho","n_it":"Saint-Martin"},"geometry":{"type":"Point","coordinates":[-63.049399,18.081302]}},{"type":"Feature","properties":{"name":"St-Barthélemy","sr":6,"n_en":"Saint Barthélemy","n_zh":"圣巴泰勒米","n_ja":"サン・バルテルミー島","n_ko":"생바르텔레미","n_ru":"Сен-Бартелеми","n_es":"San Bartolomé","n_fr":"Saint-Barthélemy","n_de":"Saint-Barthélemy","n_ar":"سان بارتيلمي","n_pt":"Coletividade de São Bartolomeu","n_it":"Saint-Barthélemy"},"geometry":{"type":"Point","coordinates":[-62.833193,17.901987]}},{"type":"Feature","properties":{"name":"Fr. Polynesia","sr":4,"n_en":"French Polynesia","n_zh":"法属波利尼西亚","n_ja":"フランス領ポリネシア","n_ko":"프랑스령 폴리네시아","n_ru":"Французская Полинезия","n_es":"Polinesia Francesa","n_fr":"Polynésie française","n_de":"Französisch-Polynesien","n_ar":"بولينزيا الفرنسية","n_pt":"Polinésia Francesa","n_it":"Polinesia francese"},"geometry":{"type":"Point","coordinates":[-149.46157,-17.628081]}},{"type":"Feature","properties":{"name":"New Caledonia","sr":3,"n_en":"New Caledonia","n_zh":"新喀里多尼亚","n_ja":"ニューカレドニア","n_ko":"누벨칼레도니","n_ru":"Новая Каледония","n_es":"Nueva Caledonia","n_fr":"Nouvelle-Calédonie","n_de":"Neukaledonien","n_ar":"كاليدونيا الجديدة","n_pt":"Nova Caledónia","n_it":"Nuova Caledonia"},"geometry":{"type":"Point","coordinates":[165.084004,-21.064697]}},{"type":"Feature","properties":{"name":"Fr. S. Antarctic Lands","sr":6,"n_en":"French Southern and Antarctic Lands","n_zh":"法属南部和南极领地","n_ja":"フランス領南方・南極地域","n_ko":"프랑스령 남방 및 남극","n_ru":"Французские Южные и Антарктические территории","n_es":"Tierras Australes y Antárticas Francesas","n_fr":"Terres australes et antarctiques françaises","n_de":"Französische Süd- und Antarktisgebiete","n_ar":"أراض فرنسية جنوبية وأنتارتيكية","n_pt":"Terras Austrais e Antárticas Francesas","n_it":"Terre australi e antartiche francesi"},"geometry":{"type":"Point","coordinates":[69.122136,-49.303721]}},{"type":"Feature","properties":{"name":"Åland","sr":6,"n_en":"Åland","n_zh":"奥兰","n_ja":"オーランド諸島","n_ko":"올란드 제도","n_ru":"Аландские острова","n_es":"Åland","n_fr":"Åland","n_de":"Åland","n_ar":"جزر أولاند","n_pt":"Åland","n_it":"Isole Åland"},"geometry":{"type":"Point","coordinates":[19.869671,60.156467]}},{"type":"Feature","properties":{"name":"Finland","sr":3,"n_en":"Finland","n_zh":"芬兰","n_ja":"フィンランド","n_ko":"핀란드","n_ru":"Финляндия","n_es":"Finlandia","n_fr":"Finlande","n_de":"Finnland","n_ar":"فنلندا","n_pt":"Finlândia","n_it":"Finlandia"},"geometry":{"type":"Point","coordinates":[27.276449,63.252361]}},{"type":"Feature","properties":{"name":"Fiji","sr":6,"n_en":"Fiji","n_zh":"斐济","n_ja":"フィジー","n_ko":"피지","n_ru":"Фиджи","n_es":"Fiyi","n_fr":"Fidji","n_de":"Fidschi","n_ar":"فيجي","n_pt":"Fiji","n_it":"Figi"},"geometry":{"type":"Point","coordinates":[177.975427,-17.826099]}},{"type":"Feature","properties":{"name":"Ethiopia","sr":2,"n_en":"Ethiopia","n_zh":"埃塞俄比亚","n_ja":"エチオピア","n_ko":"에티오피아","n_ru":"Эфиопия","n_es":"Etiopía","n_fr":"Éthiopie","n_de":"Äthiopien","n_ar":"إثيوبيا","n_pt":"Etiópia","n_it":"Etiopia"},"geometry":{"type":"Point","coordinates":[39.0886,8.032795]}},{"type":"Feature","properties":{"name":"Estonia","sr":6,"n_en":"Estonia","n_zh":"爱沙尼亚","n_ja":"エストニア","n_ko":"에스토니아","n_ru":"Эстония","n_es":"Estonia","n_fr":"Estonie","n_de":"Estland","n_ar":"إستونيا","n_pt":"Estónia","n_it":"Estonia"},"geometry":{"type":"Point","coordinates":[25.867126,58.724865]}},{"type":"Feature","properties":{"name":"Eritrea","sr":4,"n_en":"Eritrea","n_zh":"厄立特里亚","n_ja":"エリトリア","n_ko":"에리트레아","n_ru":"Эритрея","n_es":"Eritrea","n_fr":"Érythrée","n_de":"Eritrea","n_ar":"إريتريا","n_pt":"Eritreia","n_it":"Eritrea"},"geometry":{"type":"Point","coordinates":[38.285566,15.787401]}},{"type":"Feature","properties":{"name":"Eq. Guinea","sr":4,"n_en":"Equatorial Guinea","n_zh":"赤道几内亚","n_ja":"赤道ギニア","n_ko":"적도 기니","n_ru":"Экваториальная Гвинея","n_es":"Guinea Ecuatorial","n_fr":"Guinée équatoriale","n_de":"Äquatorialguinea","n_ar":"غينيا الاستوائية","n_pt":"Guiné Equatorial","n_it":"Guinea Equatoriale"},"geometry":{"type":"Point","coordinates":[8.9902,2.333]}},{"type":"Feature","properties":{"name":"El Salvador","sr":6,"n_en":"El Salvador","n_zh":"萨尔瓦多","n_ja":"エルサルバドル","n_ko":"엘살바도르","n_ru":"Сальвадор","n_es":"El Salvador","n_fr":"Salvador","n_de":"El Salvador","n_ar":"السلفادور","n_pt":"El Salvador","n_it":"El Salvador"},"geometry":{"type":"Point","coordinates":[-88.890124,13.685371]}},{"type":"Feature","properties":{"name":"Egypt","sr":2,"n_en":"Egypt","n_zh":"埃及","n_ja":"エジプト","n_ko":"이집트","n_ru":"Египет","n_es":"Egipto","n_fr":"Égypte","n_de":"Ägypten","n_ar":"مصر","n_pt":"Egito","n_it":"Egitto"},"geometry":{"type":"Point","coordinates":[29.445837,26.186173]}},{"type":"Feature","properties":{"name":"Ecuador","sr":3,"n_en":"Ecuador","n_zh":"厄瓜多尔","n_ja":"エクアドル","n_ko":"에콰도르","n_ru":"Эквадор","n_es":"Ecuador","n_fr":"Équateur","n_de":"Ecuador","n_ar":"الإكوادور","n_pt":"Equador","n_it":"Ecuador"},"geometry":{"type":"Point","coordinates":[-78.188375,-1.259076]}},{"type":"Feature","properties":{"name":"Dominican Rep.","sr":5,"n_en":"Dominican Republic","n_zh":"多米尼加","n_ja":"ドミニカ共和国","n_ko":"도미니카 공화국","n_ru":"Доминиканская Республика","n_es":"República Dominicana","n_fr":"République dominicaine","n_de":"Dominikanische Republik","n_ar":"جمهورية الدومينيكان","n_pt":"República Dominicana","n_it":"Repubblica Dominicana"},"geometry":{"type":"Point","coordinates":[-70.653998,19.104137]}},{"type":"Feature","properties":{"name":"Dominica","sr":6,"n_en":"Dominica","n_zh":"多米尼克","n_ja":"ドミニカ国","n_ko":"도미니카 연방","n_ru":"Доминика","n_es":"Dominica","n_fr":"Dominique","n_de":"Dominica","n_ar":"دومينيكا","n_pt":"Dominica","n_it":"Dominica"},"geometry":{"type":"Point","coordinates":[-61.344958,15.458829]}},{"type":"Feature","properties":{"name":"Djibouti","sr":5,"n_en":"Djibouti","n_zh":"吉布提","n_ja":"ジブチ","n_ko":"지부티","n_ru":"Джибути","n_es":"Yibuti","n_fr":"Djibouti","n_de":"Dschibuti","n_ar":"جيبوتي","n_pt":"Djibouti","n_it":"Gibuti"},"geometry":{"type":"Point","coordinates":[42.498825,11.976343]}},{"type":"Feature","properties":{"name":"Greenland","sr":3,"n_en":"Greenland","n_zh":"格陵兰","n_ja":"グリーンランド","n_ko":"그린란드","n_ru":"Гренландия","n_es":"Groenlandia","n_fr":"Groenland","n_de":"Grönland","n_ar":"جرينلاند","n_pt":"Groenlândia","n_it":"Groenlandia"},"geometry":{"type":"Point","coordinates":[-39.335251,74.319387]}},{"type":"Feature","properties":{"name":"Faeroe Is.","sr":6,"n_en":"Faroe Islands","n_zh":"法罗群岛","n_ja":"フェロー諸島","n_ko":"페로 제도","n_ru":"Фарерские острова","n_es":"Islas Feroe","n_fr":"îles Féroé","n_de":"Färöer","n_ar":"جزر فارو","n_pt":"Ilhas Feroe","n_it":"Fær Øer"},"geometry":{"type":"Point","coordinates":[-7.058429,62.185604]}},{"type":"Feature","properties":{"name":"Denmark","sr":4,"n_en":"Denmark","n_zh":"丹麦","n_ja":"デンマーク","n_ko":"덴마크","n_ru":"Дания","n_es":"Dinamarca","n_fr":"Danemark","n_de":"Dänemark","n_ar":"الدنمارك","n_pt":"Dinamarca","n_it":"Danimarca"},"geometry":{"type":"Point","coordinates":[9.018163,55.966965]}},{"type":"Feature","properties":{"name":"Czechia","sr":5,"n_en":"Czech Republic","n_zh":"捷克","n_ja":"チェコ","n_ko":"체코","n_ru":"Чехия","n_es":"República Checa","n_fr":"Tchéquie","n_de":"Tschechien","n_ar":"التشيك","n_pt":"Chéquia","n_it":"Repubblica Ceca"},"geometry":{"type":"Point","coordinates":[15.377555,49.882364]}},{"type":"Feature","properties":{"name":"N. Cyprus","sr":6,"n_en":"Turkish Republic of Northern Cyprus","n_zh":"北塞浦路斯土耳其共和国","n_ja":"北キプロス・トルコ共和国","n_ko":"북키프로스","n_ru":"Турецкая Республика Северного Кипра","n_es":"República Turca del Norte de Chipre","n_fr":"Chypre du Nord","n_de":"Türkische Republik Nordzypern","n_ar":"قبرص الشمالية","n_pt":"República Turca do Chipre do Norte","n_it":"Cipro del Nord"},"geometry":{"type":"Point","coordinates":[33.692434,35.216071]}},{"type":"Feature","properties":{"name":"Cyprus","sr":5,"n_en":"Cyprus","n_zh":"塞浦路斯","n_ja":"キプロス","n_ko":"키프로스","n_ru":"Кипр","n_es":"Chipre","n_fr":"Chypre","n_de":"Republik Zypern","n_ar":"قبرص","n_pt":"Chipre","n_it":"Cipro"},"geometry":{"type":"Point","coordinates":[33.084182,34.913329]}},{"type":"Feature","properties":{"name":"Cuba","sr":3,"n_en":"Cuba","n_zh":"古巴","n_ja":"キューバ","n_ko":"쿠바","n_ru":"Куба","n_es":"Cuba","n_fr":"Cuba","n_de":"Kuba","n_ar":"كوبا","n_pt":"Cuba","n_it":"Cuba"},"geometry":{"type":"Point","coordinates":[-77.975855,21.334024]}},{"type":"Feature","properties":{"name":"Croatia","sr":6,"n_en":"Croatia","n_zh":"克罗地亚","n_ja":"クロアチア","n_ko":"크로아티아","n_ru":"Хорватия","n_es":"Croacia","n_fr":"Croatie","n_de":"Kroatien","n_ar":"كرواتيا","n_pt":"Croácia","n_it":"Croazia"},"geometry":{"type":"Point","coordinates":[16.37241,45.805799]}},{"type":"Feature","properties":{"name":"Côte d'Ivoire","sr":3,"n_en":"Ivory Coast","n_zh":"科特迪瓦","n_ja":"コートジボワール","n_ko":"코트디부아르","n_ru":"Кот-д’Ивуар","n_es":"Costa de Marfil","n_fr":"Côte d'Ivoire","n_de":"Elfenbeinküste","n_ar":"ساحل العاج","n_pt":"Costa do Marfim","n_it":"Costa d'Avorio"},"geometry":{"type":"Point","coordinates":[-5.568618,7.49139]}},{"type":"Feature","properties":{"name":"Costa Rica","sr":5,"n_en":"Costa Rica","n_zh":"哥斯达黎加","n_ja":"コスタリカ","n_ko":"코스타리카","n_ru":"Коста-Рика","n_es":"Costa Rica","n_fr":"Costa Rica","n_de":"Costa Rica","n_ar":"كوستاريكا","n_pt":"Costa Rica","n_it":"Costa Rica"},"geometry":{"type":"Point","coordinates":[-84.077922,10.0651]}},{"type":"Feature","properties":{"name":"Dem. Rep. Congo","sr":2,"n_en":"Democratic Republic of the Congo","n_zh":"刚果民主共和国","n_ja":"コンゴ民主共和国","n_ko":"콩고 민주 공화국","n_ru":"Демократическая Республика Конго","n_es":"República Democrática del Congo","n_fr":"République démocratique du Congo","n_de":"Demokratische Republik Kongo","n_ar":"جمهورية الكونغو الديمقراطية","n_pt":"República Democrática do Congo","n_it":"Repubblica Democratica del Congo"},"geometry":{"type":"Point","coordinates":[23.458829,-1.858167]}},{"type":"Feature","properties":{"name":"Congo","sr":4,"n_en":"Republic of the Congo","n_zh":"刚果共和国","n_ja":"コンゴ共和国","n_ko":"콩고 공화국","n_ru":"Республика Конго","n_es":"República del Congo","n_fr":"République du Congo","n_de":"Republik Kongo","n_ar":"جمهورية الكونغو","n_pt":"República do Congo","n_it":"Repubblica del Congo"},"geometry":{"type":"Point","coordinates":[15.9005,0.142331]}},{"type":"Feature","properties":{"name":"Comoros","sr":6,"n_en":"Comoros","n_zh":"科摩罗","n_ja":"コモロ","n_ko":"코모로","n_ru":"Коморы","n_es":"Comoras","n_fr":"Comores","n_de":"Komoren","n_ar":"جزر القمر","n_pt":"Comores","n_it":"Comore"},"geometry":{"type":"Point","coordinates":[43.318094,-11.727683]}},{"type":"Feature","properties":{"name":"Colombia","sr":2,"n_en":"Colombia","n_zh":"哥伦比亚","n_ja":"コロンビア","n_ko":"콜롬비아","n_ru":"Колумбия","n_es":"Colombia","n_fr":"Colombie","n_de":"Kolumbien","n_ar":"كولومبيا","n_pt":"Colômbia","n_it":"Colombia"},"geometry":{"type":"Point","coordinates":[-73.174347,3.373111]}},{"type":"Feature","properties":{"name":"China","sr":2,"n_en":"People's Republic of China","n_zh":"中华人民共和国","n_ja":"中華人民共和国","n_ko":"중화인민공화국","n_ru":"Китайская Народная Республика","n_es":"China","n_fr":"République populaire de Chine","n_de":"Volksrepublik China","n_ar":"الصين","n_pt":"China","n_it":"Cina"},"geometry":{"type":"Point","coordinates":[106.337289,32.498178]}},{"type":"Feature","properties":{"name":"Macao","sr":4,"n_en":"Macau","n_zh":"澳门","n_ja":"マカオ","n_ko":"마카오","n_ru":"Макао","n_es":"Macao","n_fr":"Macao","n_de":"Macau","n_ar":"ماكاو","n_pt":"Macau","n_it":"Macao"},"geometry":{"type":"Point","coordinates":[113.556038,22.129735]}},{"type":"Feature","properties":{"name":"Hong Kong","sr":4,"n_en":"Hong Kong","n_zh":"香港","n_ja":"香港","n_ko":"홍콩","n_ru":"Гонконг","n_es":"Hong Kong","n_fr":"Hong Kong","n_de":"Hongkong","n_ar":"هونغ كونغ","n_pt":"Hong Kong","n_it":"Hong Kong"},"geometry":{"type":"Point","coordinates":[114.097769,22.448829]}},{"type":"Feature","properties":{"name":"Chile","sr":2,"n_en":"Chile","n_zh":"智利","n_ja":"チリ","n_ko":"칠레","n_ru":"Чили","n_es":"Chile","n_fr":"Chili","n_de":"Chile","n_ar":"تشيلي","n_pt":"Chile","n_it":"Cile"},"geometry":{"type":"Point","coordinates":[-72.318871,-38.151771]}},{"type":"Feature","properties":{"name":"Chad","sr":3,"n_en":"Chad","n_zh":"乍得","n_ja":"チャド","n_ko":"차드","n_ru":"Чад","n_es":"Chad","n_fr":"Tchad","n_de":"Tschad","n_ar":"تشاد","n_pt":"Chade","n_it":"Ciad"},"geometry":{"type":"Point","coordinates":[18.645041,15.142959]}},{"type":"Feature","properties":{"name":"Central African Rep.","sr":4,"n_en":"Central African Republic","n_zh":"中非共和国","n_ja":"中央アフリカ共和国","n_ko":"중앙아프리카 공화국","n_ru":"Центральноафриканская Республика","n_es":"República Centroafricana","n_fr":"République centrafricaine","n_de":"Zentralafrikanische Republik","n_ar":"جمهورية أفريقيا الوسطى","n_pt":"República Centro-Africana","n_it":"Repubblica Centrafricana"},"geometry":{"type":"Point","coordinates":[20.906897,6.989681]}},{"type":"Feature","properties":{"name":"Cabo Verde","sr":4,"n_en":"Cape Verde","n_zh":"佛得角","n_ja":"カーボベルデ","n_ko":"카보베르데","n_ru":"Кабо-Верде","n_es":"Cabo Verde","n_fr":"Cap-Vert","n_de":"Kap Verde","n_ar":"الرأس الأخضر","n_pt":"Cabo Verde","n_it":"Capo Verde"},"geometry":{"type":"Point","coordinates":[-23.639434,15.074761]}},{"type":"Feature","properties":{"name":"Canada","sr":2,"n_en":"Canada","n_zh":"加拿大","n_ja":"カナダ","n_ko":"캐나다","n_ru":"Канада","n_es":"Canadá","n_fr":"Canada","n_de":"Kanada","n_ar":"كندا","n_pt":"Canadá","n_it":"Canada"},"geometry":{"type":"Point","coordinates":[-101.9107,60.324287]}},{"type":"Feature","properties":{"name":"Cameroon","sr":3,"n_en":"Cameroon","n_zh":"喀麦隆","n_ja":"カメルーン","n_ko":"카메룬","n_ru":"Камерун","n_es":"Camerún","n_fr":"Cameroun","n_de":"Kamerun","n_ar":"الكاميرون","n_pt":"Camarões","n_it":"Camerun"},"geometry":{"type":"Point","coordinates":[12.473488,4.585041]}},{"type":"Feature","properties":{"name":"Cambodia","sr":3,"n_en":"Cambodia","n_zh":"柬埔寨","n_ja":"カンボジア","n_ko":"캄보디아","n_ru":"Камбоджа","n_es":"Camboya","n_fr":"Cambodge","n_de":"Kambodscha","n_ar":"كمبوديا","n_pt":"Camboja","n_it":"Cambogia"},"geometry":{"type":"Point","coordinates":[104.50487,12.647584]}},{"type":"Feature","properties":{"name":"Myanmar","sr":3,"n_en":"Myanmar","n_zh":"缅甸","n_ja":"ミャンマー","n_ko":"미얀마","n_ru":"Мьянма","n_es":"Birmania","n_fr":"Birmanie","n_de":"Myanmar","n_ar":"ميانمار","n_pt":"Myanmar","n_it":"Birmania"},"geometry":{"type":"Point","coordinates":[95.804497,21.573855]}},{"type":"Feature","properties":{"name":"Burundi","sr":6,"n_en":"Burundi","n_zh":"布隆迪","n_ja":"ブルンジ","n_ko":"부룬디","n_ru":"Бурунди","n_es":"Burundi","n_fr":"Burundi","n_de":"Burundi","n_ar":"بوروندي","n_pt":"Burundi","n_it":"Burundi"},"geometry":{"type":"Point","coordinates":[29.917086,-3.332836]}},{"type":"Feature","properties":{"name":"Burkina Faso","sr":3,"n_en":"Burkina Faso","n_zh":"布基纳法索","n_ja":"ブルキナファソ","n_ko":"부르키나파소","n_ru":"Буркина-Фасо","n_es":"Burkina Faso","n_fr":"Burkina Faso","n_de":"Burkina Faso","n_ar":"بوركينا فاسو","n_pt":"Burkina Faso","n_it":"Burkina Faso"},"geometry":{"type":"Point","coordinates":[-1.36388,12.673048]}},{"type":"Feature","properties":{"name":"Bulgaria","sr":4,"n_en":"Bulgaria","n_zh":"保加利亚","n_ja":"ブルガリア","n_ko":"불가리아","n_ru":"Болгария","n_es":"Bulgaria","n_fr":"Bulgarie","n_de":"Bulgarien","n_ar":"بلغاريا","n_pt":"Bulgária","n_it":"Bulgaria"},"geometry":{"type":"Point","coordinates":[25.15709,42.508785]}},{"type":"Feature","properties":{"name":"Brunei","sr":6,"n_en":"Brunei","n_zh":"文莱","n_ja":"ブルネイ","n_ko":"브루나이","n_ru":"Бруней","n_es":"Brunéi","n_fr":"Brunei","n_de":"Brunei","n_ar":"بروناي","n_pt":"Brunei","n_it":"Brunei"},"geometry":{"type":"Point","coordinates":[114.551943,4.448298]}},{"type":"Feature","properties":{"name":"Brazil","sr":2,"n_en":"Brazil","n_zh":"巴西","n_ja":"ブラジル","n_ko":"브라질","n_ru":"Бразилия","n_es":"Brasil","n_fr":"Brésil","n_de":"Brasilien","n_ar":"البرازيل","n_pt":"Brasil","n_it":"Brasile"},"geometry":{"type":"Point","coordinates":[-49.55945,-12.098687]}},{"type":"Feature","properties":{"name":"Botswana","sr":4,"n_en":"Botswana","n_zh":"博茨瓦纳","n_ja":"ボツワナ","n_ko":"보츠와나","n_ru":"Ботсвана","n_es":"Botsuana","n_fr":"Botswana","n_de":"Botswana","n_ar":"بوتسوانا","n_pt":"Botsuana","n_it":"Botswana"},"geometry":{"type":"Point","coordinates":[24.179216,-22.102634]}},{"type":"Feature","properties":{"name":"Bosnia and Herz.","sr":5,"n_en":"Bosnia and Herzegovina","n_zh":"波斯尼亚和黑塞哥维那","n_ja":"ボスニア・ヘルツェゴビナ","n_ko":"보스니아 헤르체고비나","n_ru":"Босния и Герцеговина","n_es":"Bosnia y Herzegovina","n_fr":"Bosnie-Herzégovine","n_de":"Bosnien und Herzegowina","n_ar":"البوسنة والهرسك","n_pt":"Bósnia e Herzegovina","n_it":"Bosnia ed Erzegovina"},"geometry":{"type":"Point","coordinates":[18.06841,44.091051]}},{"type":"Feature","properties":{"name":"Bolivia","sr":3,"n_en":"Bolivia","n_zh":"玻利维亚","n_ja":"ボリビア","n_ko":"볼리비아","n_ru":"Боливия","n_es":"Bolivia","n_fr":"Bolivie","n_de":"Bolivien","n_ar":"بوليفيا","n_pt":"Bolívia","n_it":"Bolivia"},"geometry":{"type":"Point","coordinates":[-64.593433,-16.666015]}},{"type":"Feature","properties":{"name":"Bhutan","sr":5,"n_en":"Bhutan","n_zh":"不丹","n_ja":"ブータン","n_ko":"부탄","n_ru":"Бутан","n_es":"Bután","n_fr":"Bhoutan","n_de":"Bhutan","n_ar":"بوتان","n_pt":"Butão","n_it":"Bhutan"},"geometry":{"type":"Point","coordinates":[90.040294,27.536685]}},{"type":"Feature","properties":{"name":"Benin","sr":5,"n_en":"Benin","n_zh":"贝宁","n_ja":"ベナン","n_ko":"베냉","n_ru":"Бенин","n_es":"Benín","n_fr":"Bénin","n_de":"Benin","n_ar":"بنين","n_pt":"Benim","n_it":"Benin"},"geometry":{"type":"Point","coordinates":[2.352018,10.324775]}},{"type":"Feature","properties":{"name":"Belize","sr":6,"n_en":"Belize","n_zh":"伯利兹","n_ja":"ベリーズ","n_ko":"벨리즈","n_ru":"Белиз","n_es":"Belice","n_fr":"Belize","n_de":"Belize","n_ar":"بليز","n_pt":"Belize","n_it":"Belize"},"geometry":{"type":"Point","coordinates":[-88.712962,17.202068]}},{"type":"Feature","properties":{"name":"Belgium","sr":2,"n_en":"Belgium","n_zh":"比利时","n_ja":"ベルギー","n_ko":"벨기에","n_ru":"Бельгия","n_es":"Bélgica","n_fr":"Belgique","n_de":"Belgien","n_ar":"بلجيكا","n_pt":"Bélgica","n_it":"Belgio"},"geometry":{"type":"Point","coordinates":[4.800448,50.785392]}},{"type":"Feature","properties":{"name":"Belarus","sr":4,"n_en":"Belarus","n_zh":"白俄罗斯","n_ja":"ベラルーシ","n_ko":"벨라루스","n_ru":"Белоруссия","n_es":"Bielorrusia","n_fr":"Biélorussie","n_de":"Belarus","n_ar":"بيلاروسيا","n_pt":"Bielorrússia","n_it":"Bielorussia"},"geometry":{"type":"Point","coordinates":[28.417701,53.821888]}},{"type":"Feature","properties":{"name":"Barbados","sr":5,"n_en":"Barbados","n_zh":"巴巴多斯","n_ja":"バルバドス","n_ko":"바베이도스","n_ru":"Барбадос","n_es":"Barbados","n_fr":"Barbade","n_de":"Barbados","n_ar":"باربادوس","n_pt":"Barbados","n_it":"Barbados"},"geometry":{"type":"Point","coordinates":[-59.568966,13.163709]}},{"type":"Feature","properties":{"name":"Bangladesh","sr":3,"n_en":"Bangladesh","n_zh":"孟加拉国","n_ja":"バングラデシュ","n_ko":"방글라데시","n_ru":"Бангладеш","n_es":"Bangladés","n_fr":"Bangladesh","n_de":"Bangladesch","n_ar":"بنغلاديش","n_pt":"Bangladesh","n_it":"Bangladesh"},"geometry":{"type":"Point","coordinates":[89.684963,24.214956]}},{"type":"Feature","properties":{"name":"Bahrain","sr":4,"n_en":"Bahrain","n_zh":"巴林","n_ja":"バーレーン","n_ko":"바레인","n_ru":"Бахрейн","n_es":"Baréin","n_fr":"Bahreïn","n_de":"Bahrain","n_ar":"البحرين","n_pt":"Bahrein","n_it":"Bahrein"},"geometry":{"type":"Point","coordinates":[50.554816,26.055972]}},{"type":"Feature","properties":{"name":"Bahamas","sr":4,"n_en":"The Bahamas","n_zh":"巴哈马","n_ja":"バハマ","n_ko":"바하마","n_ru":"Багамские Острова","n_es":"Bahamas","n_fr":"Bahamas","n_de":"Bahamas","n_ar":"باهاماس","n_pt":"Bahamas","n_it":"Bahamas"},"geometry":{"type":"Point","coordinates":[-77.146688,26.401789]}},{"type":"Feature","properties":{"name":"Azerbaijan","sr":5,"n_en":"Azerbaijan","n_zh":"阿塞拜疆","n_ja":"アゼルバイジャン","n_ko":"아제르바이잔","n_ru":"Азербайджан","n_es":"Azerbaiyán","n_fr":"Azerbaïdjan","n_de":"Aserbaidschan","n_ar":"أذربيجان","n_pt":"Azerbaijão","n_it":"Azerbaigian"},"geometry":{"type":"Point","coordinates":[47.210994,40.402387]}},{"type":"Feature","properties":{"name":"Austria","sr":4,"n_en":"Austria","n_zh":"奥地利","n_ja":"オーストリア","n_ko":"오스트리아","n_ru":"Австрия","n_es":"Austria","n_fr":"Autriche","n_de":"Österreich","n_ar":"النمسا","n_pt":"Áustria","n_it":"Austria"},"geometry":{"type":"Point","coordinates":[14.130515,47.518859]}},{"type":"Feature","properties":{"name":"Australia","sr":2,"n_en":"Australia","n_zh":"澳大利亚","n_ja":"オーストラリア","n_ko":"오스트레일리아","n_ru":"Австралия","n_es":"Australia","n_fr":"Australie","n_de":"Australien","n_ar":"أستراليا","n_pt":"Austrália","n_it":"Australia"},"geometry":{"type":"Point","coordinates":[134.04972,-24.129522]}},{"type":"Feature","properties":{"name":"Indian Ocean Ter.","sr":5,"n_en":"Australian Indian Ocean Territories","n_zh":"澳屬印度洋領地","n_ja":"オーストラリア領インド洋地域","n_ko":"호주령 인도양 지역","n_ru":"Австралийские территории в Индийском океане","n_es":"Territorios Australianos del Océano Índico","n_fr":"Territoires extérieurs australiens de l'Océan Indien","n_de":"Australische Territorien im Indischen Ozean","n_ar":"أقاليم المحيط الهندي الأسترالية","n_pt":"Territórios australianos do Oceano Índico","n_it":"Australian Indian Ocean Territories"},"geometry":{"type":"Point","coordinates":[105.67259,-10.490789]}},{"type":"Feature","properties":{"name":"Heard I. and McDonald Is.","sr":5,"n_en":"Heard Island and McDonald Islands","n_zh":"赫德岛和麦克唐纳群岛","n_ja":"ハード島とマクドナルド諸島","n_ko":"허드 맥도널드 제도","n_ru":"Остров Херд и острова Макдональд","n_es":"Islas Heard y McDonald","n_fr":"îles Heard-et-MacDonald","n_de":"Heard und McDonaldinseln","n_ar":"جزيرة هيرد وجزر ماكدونالد","n_pt":"Ilha Heard e Ilhas McDonald","n_it":"Isole Heard e McDonald"},"geometry":{"type":"Point","coordinates":[73.50521,-53.103462]}},{"type":"Feature","properties":{"name":"Norfolk Island","sr":5,"n_en":"Norfolk Island","n_zh":"诺福克岛","n_ja":"ノーフォーク島","n_ko":"노퍽섬","n_ru":"Норфолк","n_es":"Isla Norfolk","n_fr":"Île Norfolk","n_de":"Norfolkinsel","n_ar":"جزيرة نورفولك","n_pt":"Ilha Norfolk","n_it":"Isola Norfolk"},"geometry":{"type":"Point","coordinates":[167.954531,-29.033042]}},{"type":"Feature","properties":{"name":"Ashmore and Cartier Is.","sr":5,"n_en":"Ashmore and Cartier Islands","n_zh":"阿什莫尔和卡捷群岛","n_ja":"アシュモア・カルティエ諸島","n_ko":"애시모어 카르티에 제도","n_ru":"Острова Ашмор и Картье","n_es":"Islas Ashmore y Cartier","n_fr":"Îles Ashmore-et-Cartier","n_de":"Ashmore- und Cartierinseln","n_ar":"جزر أشمور وكارتيير","n_pt":"Ilhas Ashmore e Cartier","n_it":"Isole Ashmore e Cartier"},"geometry":{"type":"Point","coordinates":[123.586368,-12.432571]}},{"type":"Feature","properties":{"name":"Armenia","sr":6,"n_en":"Armenia","n_zh":"亚美尼亚","n_ja":"アルメニア","n_ko":"아르메니아","n_ru":"Армения","n_es":"Armenia","n_fr":"Arménie","n_de":"Armenien","n_ar":"أرمينيا","n_pt":"Arménia","n_it":"Armenia"},"geometry":{"type":"Point","coordinates":[44.800564,40.459077]}},{"type":"Feature","properties":{"name":"Argentina","sr":2,"n_en":"Argentina","n_zh":"阿根廷","n_ja":"アルゼンチン","n_ko":"아르헨티나","n_ru":"Аргентина","n_es":"Argentina","n_fr":"Argentine","n_de":"Argentinien","n_ar":"الأرجنتين","n_pt":"Argentina","n_it":"Argentina"},"geometry":{"type":"Point","coordinates":[-64.173331,-33.501159]}},{"type":"Feature","properties":{"name":"Antigua and Barb.","sr":6,"n_en":"Antigua and Barbuda","n_zh":"安提瓜和巴布达","n_ja":"アンティグア・バーブーダ","n_ko":"앤티가 바부다","n_ru":"Антигуа и Барбуда","n_es":"Antigua y Barbuda","n_fr":"Antigua-et-Barbuda","n_de":"Antigua und Barbuda","n_ar":"أنتيغوا وباربودا","n_pt":"Antígua e Barbuda","n_it":"Antigua e Barbuda"},"geometry":{"type":"Point","coordinates":[-61.790612,17.352249]}},{"type":"Feature","properties":{"name":"Angola","sr":3,"n_en":"Angola","n_zh":"安哥拉","n_ja":"アンゴラ","n_ko":"앙골라","n_ru":"Ангола","n_es":"Angola","n_fr":"Angola","n_de":"Angola","n_ar":"أنغولا","n_pt":"Angola","n_it":"Angola"},"geometry":{"type":"Point","coordinates":[17.984249,-12.182762]}},{"type":"Feature","properties":{"name":"Andorra","sr":6,"n_en":"Andorra","n_zh":"安道尔","n_ja":"アンドラ","n_ko":"안도라","n_ru":"Андорра","n_es":"Andorra","n_fr":"Andorre","n_de":"Andorra","n_ar":"أندورا","n_pt":"Andorra","n_it":"Andorra"},"geometry":{"type":"Point","coordinates":[1.539409,42.547643]}},{"type":"Feature","properties":{"name":"Algeria","sr":3,"n_en":"Algeria","n_zh":"阿尔及利亚","n_ja":"アルジェリア","n_ko":"알제리","n_ru":"Алжир","n_es":"Argelia","n_fr":"Algérie","n_de":"Algerien","n_ar":"الجزائر","n_pt":"Argélia","n_it":"Algeria"},"geometry":{"type":"Point","coordinates":[2.808241,27.397406]}},{"type":"Feature","properties":{"name":"Albania","sr":6,"n_en":"Albania","n_zh":"阿尔巴尼亚","n_ja":"アルバニア","n_ko":"알바니아","n_ru":"Албания","n_es":"Albania","n_fr":"Albanie","n_de":"Albanien","n_ar":"ألبانيا","n_pt":"Albânia","n_it":"Albania"},"geometry":{"type":"Point","coordinates":[20.11384,40.654855]}},{"type":"Feature","properties":{"name":"Afghanistan","sr":3,"n_en":"Afghanistan","n_zh":"阿富汗","n_ja":"アフガニスタン","n_ko":"아프가니스탄","n_ru":"Афганистан","n_es":"Afganistán","n_fr":"Afghanistan","n_de":"Afghanistan","n_ar":"أفغانستان","n_pt":"Afeganistão","n_it":"Afghanistan"},"geometry":{"type":"Point","coordinates":[66.496586,34.164262]}},{"type":"Feature","properties":{"name":"Siachen Glacier","sr":5,"n_en":"Siachen Glacier","n_zh":"锡亚琴冰川","n_ja":"シアチェン氷河","n_ko":"시아첸 빙하","n_ru":"Сиачен","n_es":"Glaciar de Siachen","n_fr":"glacier de Siachen","n_de":"Siachen-Gletscher","n_ar":"نهر سياتشن الجليدي","n_pt":"Glaciar de Siachen","n_it":"ghiacciaio Siachen"},"geometry":{"type":"Point","coordinates":[77.129553,35.340606]}},{"type":"Feature","properties":{"name":"Antarctica","sr":4,"n_en":"Antarctica","n_zh":"南极洲","n_ja":"南極大陸","n_ko":"남극","n_ru":"Антарктида","n_es":"Antártida","n_fr":"Antarctique","n_de":"Antarktika","n_ar":"القارة القطبية الجنوبية","n_pt":"Antártida","n_it":"Antartide"},"geometry":{"type":"Point","coordinates":[35.885455,-79.843222]}},{"type":"Feature","properties":{"name":"Sint Maarten","sr":6,"n_en":"Sint Maarten","n_zh":"荷属圣马丁","n_ja":"シント・マールテン","n_ko":"신트마르턴","n_ru":"Синт-Мартен","n_es":"San Martín","n_fr":"Saint-Martin","n_de":"Sint Maarten","n_ar":"سينت مارتن","n_pt":"São Martinho","n_it":"Sint Maarten"},"geometry":{"type":"Point","coordinates":[-63.070133,18.04088]}},{"type":"Feature","properties":{"name":"Tuvalu","sr":6,"n_en":"Tuvalu","n_zh":"图瓦卢","n_ja":"ツバル","n_ko":"투발루","n_ru":"Тувалу","n_es":"Tuvalu","n_fr":"Tuvalu","n_de":"Tuvalu","n_ar":"توفالو","n_pt":"Tuvalu","n_it":"Tuvalu"},"geometry":{"type":"Point","coordinates":[179.209587,-8.513717]}}]}